SA	31/01/2026 00:00->	
METAR SPSO 310000Z 21020KT CAVOK 22/18 Q1009 RMK BIRD HAZARD RWY 22/04 PP000=
SA	30/01/2026 23:00->	
METAR SPSO 302300Z 21022KT CAVOK 23/18 Q1009 RMK BIRD HAZARD RWY 22/04 PP000=
SA	30/01/2026 22:00->	
METAR SPSO 302200Z 21024KT CAVOK 24/18 Q1008 RMK TX27.4 BIRD HAZARD RWY 22/04 PP000=
SA	30/01/2026 21:00->	
METAR SPSO 302100Z 22024KT CAVOK 25/18 Q1008 RMK BIRD HAZARD RWY 22/04 PP000=
SA	30/01/2026 20:00->	
METAR SPSO 302000Z 22023KT CAVOK 25/18 Q1008 RMK BIRD HAZARD RWY 22/04 PP000=
SA	30/01/2026 19:00->	
METAR SPSO 301900Z 22020KT CAVOK 26/18 Q1009 RMK BIRD HAZARD RWY 22/04 PP000=
SA	30/01/2026 18:00->	
METAR SPSO 301800Z 22018KT CAVOK 27/18 Q1010 RMK BIRD HAZARD RWY 22/04 PP000=
SA	30/01/2026 17:00->	
METAR SPSO 301700Z 29007KT 250V310 CAVOK 25/18 Q1011 RMK BIRD HAZARD RWY 22/04 PP000=
SA	30/01/2026 16:00->	
METAR SPSO 301600Z 30007KT CAVOK 23/17 Q1012 RMK BIRD HAZARD RWY 22/04 PP000=
SA	30/01/2026 15:00->	
METAR SPSO 301500Z 25008KT 220V280 CAVOK 23/17 Q1012 RMK BIRD HAZARD RWY 22/04 PP000=
SA	30/01/2026 14:00->	
METAR SPSO 301400Z 22009KT CAVOK 23/17 Q1012 RMK BIRD HAZARD RWY 22/04 PP000=
SA	30/01/2026 13:00->	
METAR SPSO 301300Z 22009KT CAVOK 21/17 Q1012 RMK BIRD HAZARD RWY 22/04 PP000=
SA	30/01/2026 12:00->	
METAR SPSO 301200Z 22006KT CAVOK 20/17 Q1012 RMK TN19.6 BIRD HAZARD RWY 22/04 PP000=
SA	30/01/2026 11:00->	
METAR SPSO 301100Z 20007KT 9000 NSC 20/17 Q1011 RMK FU PP000=
SA	30/01/2026 10:00->	
METAR SPSO 301000Z 20004KT CAVOK 20/17 Q1011 RMK PP000=
SA	30/01/2026 09:00->	
METAR SPSO 300900Z 21006KT CAVOK 20/17 Q1011 RMK PP000=
SA	30/01/2026 08:00->	
METAR SPSO 300800Z 20006KT CAVOK 20/17 Q1011 RMK PP000=
SA	30/01/2026 07:00->	
METAR SPSO 300700Z 20005KT CAVOK 21/17 Q1011 RMK PP000=
SA	30/01/2026 06:00->	
METAR SPSO 300600Z 20006KT CAVOK 21/18 Q1012 RMK PP000=
SA	30/01/2026 05:00->	
METAR SPSO 300500Z 21007KT CAVOK 22/18 Q1012 RMK PP000=
SA	30/01/2026 04:00->	
METAR SPSO 300400Z 21007KT CAVOK 22/18 Q1012 RMK PP000=
SA	30/01/2026 03:00->	
METAR SPSO 300300Z 21008KT CAVOK 23/18 Q1012 RMK PP000=
SA	30/01/2026 02:00->	
METAR SPSO 300200Z 21009KT CAVOK 22/18 Q1012 RMK PP000=
SA	30/01/2026 01:00->	
METAR SPSO 300100Z 21012KT CAVOK 23/18 Q1012 RMK PP000=
SA	30/01/2026 00:00->	
METAR SPSO 300000Z 21014KT CAVOK 23/18 Q1012 RMK BIRD HAZARD RWY 22/04 PP000=
SA	29/01/2026 23:00->	
METAR SPSO 292300Z 21016KT CAVOK 23/18 Q1011 RMK BIRD HAZARD RWY 22/04 PP000=
SA	29/01/2026 22:00->	
METAR SPSO 292200Z 22019KT CAVOK 24/19 Q1011 RMK TX27.4 BIRD HAZARD RWY 22/04 PP000=
SA	29/01/2026 21:00->	
METAR SPSO 292100Z 23019KT CAVOK 26/19 Q1011 RMK BIRD HAZARD RWY 22/04 PP000=
SA	29/01/2026 20:00->	
METAR SPSO 292000Z 28008KT 220V330 CAVOK 25/19 Q1011 RMK BIRD HAZARD RWY 22/04 PP000=
SA	29/01/2026 19:00->	
METAR SPSO 291900Z 31006KT 280V340 CAVOK 25/19 Q1012 RMK BIRD HAZARD RWY 22/04 PP000=
SA	29/01/2026 18:00->	
METAR SPSO 291800Z 30009KT CAVOK 22/19 Q1013 RMK BIRD HAZARD RWY 22/04 PP000=
SA	29/01/2026 17:00->	
METAR SPSO 291700Z 28008KT CAVOK 22/19 Q1014 RMK BIRD HAZARD RWY 22/04 PP000=
SA	29/01/2026 16:00->	
METAR SPSO 291600Z 30008KT CAVOK 22/19 Q1014 RMK BIRD HAZARD RWY 22/04 PP000=
SA	29/01/2026 15:00->	
METAR SPSO 291500Z 29006KT CAVOK 22/20 Q1014 RMK BIRD HAZARD RWY 22/04 PP000=
SA	29/01/2026 14:00->	
METAR SPSO 291400Z 31004KT 280V340 9999 SCT060 22/19 Q1014 RMK BIRD HAZARD RWY 22/04 PP000=
SA	29/01/2026 13:00->	
METAR SPSO 291300Z 33004KT 300V360 9999 FEW007 22/19 Q1014 RMK BIRD HAZARD RWY 22/04 PP000=
SA	29/01/2026 12:00->	
METAR SPSO 291200Z 00000KT 8000 NSC 21/18 Q1013 RMK TN20.0 BR BIRD HAZARD RWY 22/04 PP000=
SA	29/01/2026 11:00->	
METAR SPSO 291100Z VRB01KT 9999 FEW008 21/18 Q1013 RMK PP000=
SA	29/01/2026 10:00->	
METAR SPSO 291000Z 21002KT CAVOK 21/18 Q1012 RMK PP000=
SA	29/01/2026 09:00->	
METAR SPSO 290900Z 20002KT CAVOK 20/18 Q1012 RMK PP000=
SA	29/01/2026 08:00->	
METAR SPSO 290800Z 19005KT CAVOK 20/18 Q1012 RMK PP000=
SA	29/01/2026 07:00->	
METAR SPSO 290700Z 21007KT CAVOK 20/18 Q1012 RMK PP000=
SA	29/01/2026 06:00->	
METAR SPSO 290600Z 22007KT CAVOK 20/18 Q1012 RMK PP000=
SA	29/01/2026 05:00->	
METAR SPSO 290500Z VRB02KT CAVOK 20/18 Q1013 RMK PP000=
SA	29/01/2026 04:00->	
METAR SPSO 290400Z 20007KT CAVOK 20/18 Q1013 RMK PP000=
SA	29/01/2026 03:00->	
METAR SPSO 290300Z 20011KT CAVOK 20/18 Q1013 RMK PP000=
SA	29/01/2026 02:00->	
METAR SPSO 290200Z 21014KT CAVOK 20/18 Q1012 RMK PP000=
SA	29/01/2026 01:00->	
METAR SPSO 290100Z 20015KT CAVOK 21/19 Q1012 RMK PP000=
SA	29/01/2026 00:00->	
METAR SPSO 290000Z 21016KT CAVOK 21/19 Q1011 RMK BIRD HAZARD RWY 22/04 PP000=
SA	28/01/2026 23:00->	
METAR SPSO 282300Z 21018KT CAVOK 22/19 Q1011 RMK BIRD HAZARD RWY 22/04 PP000=
SA	28/01/2026 22:00->	
METAR SPSO 282200Z 21018KT CAVOK 23/19 Q1010 RMK TX25.6 BIRD HAZARD RWY 22/04 PP000=
SA	28/01/2026 21:00->	
METAR SPSO 282100Z 22019KT CAVOK 25/19 Q1010 RMK BIRD HAZARD RWY 22/04 PP000=
SA	28/01/2026 20:00->	
METAR SPSO 282000Z 22018KT CAVOK 24/18 Q1010 RMK BIRD HAZARD RWY 22/04 PP000=
SA	28/01/2026 19:00->	
METAR SPSO 281900Z 22014KT CAVOK 25/18 Q1011 RMK BIRD HAZARD RWY 22/04 PP000=
SA	28/01/2026 18:00->	
METAR SPSO 281800Z 28006KT CAVOK 24/19 Q1012 RMK BIRD HAZARD RWY 22/04 PP000=
SA	28/01/2026 17:00->	
METAR SPSO 281700Z 26006KT CAVOK 23/18 Q1013 RMK BIRD HAZARD RWY 22/04 PP000=
SA	28/01/2026 16:00->	
METAR SPSO 281600Z 26007KT CAVOK 24/19 Q1013 RMK BIRD HAZARD RWY 22/04 PP000=
SA	28/01/2026 15:00->	
METAR SPSO 281500Z 26005KT CAVOK 23/18 Q1014 RMK BIRD HAZARD RWY 22/04 PP000=
SA	28/01/2026 14:00->	
METAR SPSO 281400Z VRB02KT CAVOK 23/18 Q1014 RMK BIRD HAZARD RWY 22/04 PP000=
SA	28/01/2026 13:00->	
METAR SPSO 281300Z 21004KT CAVOK 22/18 Q1014 RMK BIRD HAZARD RWY 22/04 PP000=
SA	28/01/2026 12:00->	
METAR SPSO 281200Z 21009KT CAVOK 21/17 Q1013 RMK TN20.7 BIRD HAZARD RWY 22/04 PP000=
SA	28/01/2026 11:00->	
METAR SPSO 281100Z 21005KT CAVOK 21/18 Q1012 RMK BIRD HAZARD RWY 22/04 PP000=
SA	28/01/2026 10:00->	
METAR SPSO 281000Z 20005KT CAVOK 21/18 Q1012 RMK PP000=
SA	28/01/2026 09:00->	
METAR SPSO 280900Z 21006KT CAVOK 21/18 Q1011 RMK PP000=
SA	28/01/2026 08:00->	
METAR SPSO 280800Z 19008KT CAVOK 21/18 Q1011 RMK PP000=
SA	28/01/2026 07:00->	
METAR SPSO 280700Z 22010KT CAVOK 21/18 Q1012 RMK PP000=
SA	28/01/2026 06:00->	
METAR SPSO 280600Z 21011KT CAVOK 22/18 Q1012 RMK PP000=
SA	28/01/2026 05:00->	
METAR SPSO 280500Z 21011KT CAVOK 22/18 Q1013 RMK PP000=
SA	28/01/2026 04:00->	
METAR SPSO 280400Z 22010KT CAVOK 23/18 Q1014 RMK BIRD HAZARD RWY 22/04 PP000=
SA	28/01/2026 03:00->	
METAR SPSO 280300Z 20010KT CAVOK 23/18 Q1014 RMK BIRD HAZARD RWY 22/04 PP000=
SA	28/01/2026 02:00->	
METAR SPSO 280200Z 20012KT CAVOK 23/18 Q1013 RMK BIRD HAZARD RWY 22/04 PP000=
SA	28/01/2026 01:00->	
METAR SPSO 280100Z 21017KT CAVOK 23/18 Q1012 RMK BIRD HAZARD RWY 22/04 PP000=
SA	28/01/2026 00:00->	
METAR SPSO 280000Z 22021KT CAVOK 24/19 Q1011 RMK BIRD HAZARD RWY 22/04 PP000=
SA	27/01/2026 23:00->	
METAR SPSO 272300Z 22024KT CAVOK 25/19 Q1010 RMK BIRD HAZARD RWY 22/04 PP000=
SA	27/01/2026 22:00->	
METAR SPSO 272200Z 22022KT 6000 BLDU NSC 27/20 Q1010 RMK TX31.8 BIRD HAZARD RWY 22/04 PP000=
SA	27/01/2026 21:00->	
METAR SPSO 272100Z 22021KT 3000 DU NSC 28/20 Q1010 RMK BIRD HAZARD RWY 22/04 PP000=
SP	27/01/2026 20:02->	
SPECI SPSO 272002Z 23019KT 2000 DU NSC 30/19 Q1011=
SA	27/01/2026 20:00->	
METAR SPSO 272000Z 22021KT 5000 DU NSC 31/18 Q1011 RMK BIRD HAZARD RWY 22/04 PP000=
SA	27/01/2026 19:00->	
METAR SPSO 271900Z 22016KT CAVOK 31/18 Q1012 RMK BIRD HAZARD RWY 22/04 PP000=
SA	27/01/2026 18:00->	
METAR SPSO 271800Z 27008KT CAVOK 29/19 Q1013 RMK BIRD HAZARD RWY 22/04 PP000=
SA	27/01/2026 17:00->	
METAR SPSO 271700Z 27010KT CAVOK 27/20 Q1014 RMK BIRD HAZARD RWY 22/04 PP000=
SA	27/01/2026 16:00->	
METAR SPSO 271600Z 27008KT CAVOK 27/20 Q1014 RMK BIRD HAZARD RWY 22/04 PP000=
SA	27/01/2026 15:00->	
METAR SPSO 271500Z 26006KT CAVOK 26/20 Q1015 RMK BIRD HAZARD RWY 22/04 PP000=
SA	27/01/2026 14:00->	
METAR SPSO 271400Z 26006KT CAVOK 25/20 Q1016 RMK BIRD HAZARD RWY 22/04 PP000=
SA	27/01/2026 13:00->	
METAR SPSO 271300Z 18003KT 110V230 CAVOK 24/19 Q1016 RMK BIRD HAZARD RWY 22/04 PP000=
SA	27/01/2026 12:00->	
METAR SPSO 271200Z VRB01KT 8000 FEW100 22/19 Q1015 RMK TN21.0 FU NE BIRD HAZARD RWY 22/04 PP000=
SA	27/01/2026 11:00->	
METAR SPSO 271100Z 22007KT 9999 FEW100 21/19 Q1015 RMK BIRD HAZARD RWY 22/04 PP000=
SA	27/01/2026 10:00->	
METAR SPSO 271000Z 21004KT 9999 SCT070 22/19 Q1014 RMK PP000=
SA	27/01/2026 09:00->	
METAR SPSO 270900Z 21008KT 9999 OVC070 22/19 Q1014 RMK PP000=
SA	27/01/2026 08:00->	
METAR SPSO 270800Z 21005KT 9999 OVC070 22/19 Q1014 RMK PP000=
SA	27/01/2026 07:00->	
METAR SPSO 270700Z 04003KT 9999 OVC070 23/20 Q1014 RMK PP000=
SA	27/01/2026 06:00->	
METAR SPSO 270600Z 03006KT 9999 OVC070 23/20 Q1014 RMK PP000=
SA	27/01/2026 05:00->	
METAR SPSO 270500Z VRB02KT 9999 OVC070 23/19 Q1015 RMK PP000=
SA	27/01/2026 04:00->	
METAR SPSO 270400Z 24004KT 9999 OVC070 22/19 Q1015 RMK PP000=
SA	27/01/2026 03:00->	
METAR SPSO 270300Z 22007KT 9999 OVC070 23/19 Q1015 RMK PP000=
SA	27/01/2026 02:00->	
METAR SPSO 270200Z 20008KT 9999 OVC070 23/19 Q1014 RMK PP000=
SA	27/01/2026 01:00->	
METAR SPSO 270100Z 21007KT 9999 BKN050 23/19 Q1013 RMK BIRD HAZARD RWY 22/04 PP000=
SA	27/01/2026 00:00->	
METAR SPSO 270000Z VRB03KT 9999 FEW080 24/19 Q1013 RMK BIRD HAZARD RWY 22/04 PP000=
SA	26/01/2026 23:00->	
METAR SPSO 262300Z 22018KT CAVOK 25/19 Q1011 RMK BIRD HAZARD RWY 22/04 PP000=
SA	26/01/2026 22:00->	
METAR SPSO 262200Z 22019KT CAVOK 26/19 Q1010 RMK TX28.6 BIRD HAZARD RWY 22/04 PP000=
SA	26/01/2026 21:00->	
METAR SPSO 262100Z 22019KT CAVOK 28/19 Q1010 RMK BIRD HAZARD RWY 22/04 PP000=
SA	26/01/2026 20:00->	
METAR SPSO 262000Z 22018KT CAVOK 28/19 Q1011 RMK BIRD HAZARD RWY 22/04 PP000=
SA	26/01/2026 19:00->	
METAR SPSO 261900Z 23013KT CAVOK 28/19 Q1012 RMK BIRD HAZARD RWY 22/04 PP000=
SA	26/01/2026 18:00->	
METAR SPSO 261800Z 27009KT CAVOK 27/19 Q1013 RMK BIRD HAZARD RWY 22/04 PP000=
SA	26/01/2026 17:00->	
METAR SPSO 261700Z 27007KT CAVOK 26/20 Q1013 RMK BIRD HAZARD RWY 22/04 PP000=
SA	26/01/2026 16:00->	
METAR SPSO 261600Z 28007KT CAVOK 25/21 Q1014 RMK BIRD HAZARD RWY 22/04 PP000=
SA	26/01/2026 15:00->	
METAR SPSO 261500Z 28005KT 240V310 CAVOK 25/21 Q1014 RMK BIRD HAZARD RWY 22/04 PP000=
SA	26/01/2026 14:00->	
METAR SPSO 261400Z 26004KT 9999 FEW010 24/21 Q1014 RMK BIRD HAZARD RWY 22/04 PP000=
SA	26/01/2026 13:00->	
METAR SPSO 261300Z 25004KT 9999 FEW080 23/21 Q1014 RMK BIRD HAZARD RWY 22/04 PP000=
SA	26/01/2026 12:00->	
METAR SPSO 261200Z 29003KT 9999 FEW010 23/21 Q1014 RMK TN22.6 BIRD HAZARD RWY 22/04 PP000=
SA	26/01/2026 11:00->	
METAR SPSO 261100Z 33001KT 9999 BKN080 23/21 Q1013 RMK PP000=
SA	26/01/2026 10:00->	
METAR SPSO 261000Z 36003KT 9999 BKN080 23/20 Q1012 RMK PP000=
SA	26/01/2026 09:00->	
METAR SPSO 260900Z 35003KT 9999 BKN070 23/20 Q1012 RMK PP000=
SA	26/01/2026 08:00->	
METAR SPSO 260800Z 21003KT 9999 OVC070 23/20 Q1012 RMK PP000=
SA	26/01/2026 07:00->	
METAR SPSO 260700Z 21010KT 9999 OVC070 23/20 Q1012 RMK PP000=
SA	26/01/2026 06:00->	
METAR SPSO 260600Z 21010KT 9999 OVC070 23/20 Q1012 RMK PP000=
SA	26/01/2026 05:00->	
METAR SPSO 260500Z 22010KT 9999 OVC070 23/20 Q1013 RMK PP000=
SA	26/01/2026 04:00->	
METAR SPSO 260400Z 22007KT 9999 OVC070 23/20 Q1013 RMK PP000=
SA	26/01/2026 03:00->	
METAR SPSO 260300Z 21004KT 150V240 9999 OVC070 24/20 Q1014 RMK PP000=
SA	26/01/2026 02:00->	
METAR SPSO 260200Z 21005KT 9999 OVC070 24/20 Q1013 RMK PP000=
SA	26/01/2026 01:00->	
METAR SPSO 260100Z 20004KT CAVOK 24/20 Q1012 RMK PP000=
SA	26/01/2026 00:00->	
METAR SPSO 260000Z 21011KT CAVOK 24/20 Q1012 RMK FU NE BIRD HAZARD RWY 22/04 PP000=
SA	25/01/2026 23:00->	
METAR SPSO 252300Z 23009KT CAVOK 25/20 Q1011 RMK BIRD HAZARD RWY 22/04 PP000=
SA	25/01/2026 22:00->	
METAR SPSO 252200Z 29004KT 230V330 CAVOK 25/20 Q1011 RMK TX25.8 BIRD HAZARD RWY 22/04 PP000=
SA	25/01/2026 21:00->	
METAR SPSO 252100Z 30006KT 260V340 CAVOK 25/21 Q1011 RMK BIRD HAZARD RWY 22/04 PP000=
SA	25/01/2026 20:00->	
METAR SPSO 252000Z 29007KT CAVOK 26/20 Q1012 RMK BIRD HAZARD RWY 22/04 PP000=
SA	25/01/2026 19:00->	
METAR SPSO 251900Z 29006KT 270V330 CAVOK 26/20 Q1013 RMK BIRD HAZARD RWY 22/04 PP000=
SA	25/01/2026 18:00->	
METAR SPSO 251800Z 28009KT CAVOK 24/20 Q1013 RMK BIRD HAZARD RWY 22/04 PP000=
SA	25/01/2026 17:00->	
METAR SPSO 251700Z 30009KT CAVOK 26/20 Q1013 RMK BIRD HAZARD RWY 22/04 PP000=
SA	25/01/2026 16:00->	
METAR SPSO 251600Z 29008KT CAVOK 25/20 Q1014 RMK BIRD HAZARD RWY 22/04 PP000=
SA	25/01/2026 15:00->	
METAR SPSO 251500Z 31007KT 280V340 CAVOK 25/20 Q1015 RMK BIRD HAZARD RWY 22/04 PP000=
SA	25/01/2026 14:00->	
METAR SPSO 251400Z 29005KT CAVOK 25/20 Q1015 RMK BIRD HAZARD RWY 22/04 PP000=
SA	25/01/2026 13:00->	
METAR SPSO 251300Z VRB01KT 9999 SCT090 24/20 Q1014 RMK BIRD HAZARD RWY 22/04 PP000=
SA	25/01/2026 12:00->	
METAR SPSO 251200Z 34002KT 9999 SCT070 22/20 Q1014 RMK TN20.3 BIRD HAZARD RWY 22/04 PP000=
SA	25/01/2026 11:00->	
METAR SPSO 251100Z VRB02KT 9999 BKN070 21/20 Q1013 RMK BIRD HAZARD RWY 22/04 PP000=
SA	25/01/2026 10:00->	
METAR SPSO 251000Z 26003KT 230V290 9999 BKN070 22/20 Q1012 RMK BIRD HAZARD RWY 22/04 PP000=
SA	25/01/2026 09:00->	
METAR SPSO 250900Z 21004KT 9999 BKN070 22/20 Q1012 RMK PP000=
SA	25/01/2026 08:00->	
METAR SPSO 250800Z 20002KT 9999 BKN070 22/19 Q1012 RMK PP000=
SA	25/01/2026 07:00->	
METAR SPSO 250700Z 20004KT 9999 SCT070 22/20 Q1013 RMK PP000=
SA	25/01/2026 06:00->	
METAR SPSO 250600Z 21003KT 9000 NSC 22/20 Q1013 RMK PP000=
SA	25/01/2026 05:00->	
METAR SPSO 250500Z 14003KT 8000 NSC 22/20 Q1014 RMK PP000=
SA	25/01/2026 04:00->	
METAR SPSO 250400Z 00000KT 6000 SCT004 21/20 Q1015 RMK PP000=
SA	25/01/2026 03:00->	
METAR SPSO 250300Z 32004KT 3000 BR BKN003 21/20 Q1015 RMK BIRD HAZARD RWY 22/04 PP000=
SP	25/01/2026 02:00->	
METAR COR SPSO 250200Z 31005KT 290V350 1500 BCFG BKN002 20/20 Q1014 RMK BIRD HAZARD RWY 22/04 PP000=
SA	25/01/2026 02:00->	
METAR SPSO 250200Z 31005KT 290V350 1500 BCFG BKN002 20/20 Q1014 RMK BIRD HAZARD RWY 22/04=
SP	25/01/2026 01:29->	
SPECI SPSO 250129Z 29005KT 2500 BCFG BKN003 20/19 Q1014=
SP	25/01/2026 01:08->	
SPECI SPSO 250108Z 28006KT 3000 BR SCT003 BKN070 21/20 Q1014=
SA	25/01/2026 01:00->	
METAR SPSO 250100Z 28007KT 8000 SCT004 BKN070 21/20 Q1014 RMK BIRD HAZARD RWY 22/04 PP000=
SA	25/01/2026 00:00->	
METAR SPSO 250000Z 29004KT 260V320 9999 BKN050 23/20 Q1013 RMK BIRD HAZARD RWY 22/04 PP000=
SA	24/01/2026 23:00->	
METAR SPSO 242300Z 28005KT CAVOK 23/20 Q1012 RMK BIRD HAZARD RWY 22/04 PP000=
SA	24/01/2026 22:00->	
METAR SPSO 242200Z 33006KT 290V360 CAVOK 25/20 Q1011 RMK TX26.6 BIRD HAZARD RWY 22/04 PP000=
SA	24/01/2026 21:00->	
METAR SPSO 242100Z 27007KT CAVOK 26/20 Q1011 RMK BIRD HAZARD RWY 22/04 PP000=
SA	24/01/2026 20:00->	
METAR SPSO 242000Z 23008KT 200V270 CAVOK 26/20 Q1011 RMK BIRD HAZARD RWY 22/04 PP000=
SA	24/01/2026 19:00->	
METAR SPSO 241900Z 25009KT CAVOK 26/19 Q1011 RMK BIRD HAZARD RWY 22/04 PP000=
SA	24/01/2026 18:00->	
METAR SPSO 241800Z 26009KT CAVOK 25/20 Q1012 RMK BIRD HAZARD RWY 22/04 PP000=
SA	24/01/2026 17:00->	
METAR SPSO 241700Z 28009KT CAVOK 24/20 Q1013 RMK BIRD HAZARD RWY 22/04 PP000=
SA	24/01/2026 16:00->	
METAR SPSO 241600Z 28008KT 9999 FEW010 24/20 Q1013 RMK BIRD HAZARD RWY 22/04 PP000=
SA	24/01/2026 15:00->	
METAR SPSO 241500Z 30007KT 9000 NSC 24/21 Q1013 RMK BIRD HAZARD RWY 22/04 PP000=
SA	24/01/2026 14:00->	
METAR SPSO 241400Z 32006KT 9000 NSC 24/21 Q1013 RMK BIRD HAZARD RWY 22/04 PP000=
SA	24/01/2026 13:00->	
METAR SPSO 241300Z 33004KT 300V030 7000 FEW006 24/21 Q1013 RMK BIRD HAZARD RWY 22/04 PP000=
SA	24/01/2026 12:00->	
METAR SPSO 241200Z 06002KT 4000 BR SCT004 22/19 Q1012 RMK TN19.7 BIRD HAZARD RWY 22/04 PP000=
SA	24/01/2026 11:00->	
METAR SPSO 241100Z 05003KT 3000 FU NSC 20/18 Q1011 RMK PP000=
SA	24/01/2026 10:00->	
METAR SPSO 241000Z 08003KT 4000 FU NSC 20/18 Q1011 RMK PP000=
SA	24/01/2026 09:00->	
METAR SPSO 240900Z 12002KT 4000 FU NSC 20/18 Q1010 RMK PP000=
SA	24/01/2026 08:00->	
METAR SPSO 240800Z 16002KT 7000 NSC 21/18 Q1010 RMK FU PP000=
SA	24/01/2026 07:00->	
METAR SPSO 240700Z 20003KT CAVOK 22/19 Q1011 RMK PP000=
SA	24/01/2026 06:00->	
METAR SPSO 240600Z VRB01KT 9000 NSC 22/18 Q1011 RMK FU PP000=
SA	24/01/2026 05:00->	
METAR SPSO 240500Z 08003KT 9000 NSC 22/19 Q1012 RMK FU PP000=
SA	24/01/2026 04:00->	
METAR SPSO 240400Z 17003KT CAVOK 23/20 Q1013 RMK PP000=
SA	24/01/2026 03:00->	
METAR SPSO 240300Z 19004KT CAVOK 24/19 Q1013 RMK PP000=
SA	24/01/2026 02:00->	
METAR SPSO 240200Z 21006KT CAVOK 24/20 Q1012 RMK PP000=
SA	24/01/2026 01:00->	
METAR SPSO 240100Z 20007KT CAVOK 24/20 Q1012 RMK PP000=
SA	24/01/2026 00:00->	
METAR SPSO 240000Z 21013KT CAVOK 24/21 Q1011 RMK BIRD HAZARD RWY 22/04 PP000=
SA	23/01/2026 23:00->	
METAR SPSO 232300Z 20016KT CAVOK 25/21 Q1010 RMK BIRD HAZARD RWY 22/04 PP000=
SA	23/01/2026 22:00->	
METAR SPSO 232200Z 21015KT CAVOK 27/20 Q1010 RMK TX28.2 BIRD HAZARD RWY 22/04 PP000=
SA	23/01/2026 21:00->	
METAR SPSO 232100Z 22014KT CAVOK 27/20 Q1010 RMK BIRD HAZARD RWY 22/04 PP000=
SA	23/01/2026 20:00->	
METAR SPSO 232000Z 22014KT CAVOK 28/20 Q1010 RMK BIRD HAZARD RWY 22/04 PP000=
SA	23/01/2026 19:00->	
METAR SPSO 231900Z 25011KT CAVOK 27/19 Q1011 RMK BIRD HAZARD RWY 22/04 PP000=
SA	23/01/2026 18:00->	
METAR SPSO 231800Z 26011KT CAVOK 25/20 Q1011 RMK BIRD HAZARD RWY 22/04 PP000=
SA	23/01/2026 17:00->	
METAR SPSO 231700Z 27011KT 9999 SCT100 25/21 Q1012 RMK BIRD HAZARD RWY 22/04 PP000=
SA	23/01/2026 16:00->	
METAR SPSO 231600Z 28010KT CAVOK 26/22 Q1013 RMK BIRD HAZARD RWY 22/04 PP000=
SA	23/01/2026 15:00->	
METAR SPSO 231500Z 30007KT CAVOK 25/20 Q1013 RMK BIRD HAZARD RWY 22/04 PP000=
SA	23/01/2026 14:00->	
METAR SPSO 231400Z VRB02KT 8000 NSC 26/19 Q1014 RMK BIRD HAZARD RWY 22/04 PP000=
SA	23/01/2026 13:00->	
METAR SPSO 231300Z VRB02KT 7000 NSC 23/19 Q1013 RMK BIRD HAZARD RWY 22/04 PP000=
SA	23/01/2026 12:00->	
METAR SPSO 231200Z 09002KT 3000 FU NSC 21/19 Q1013 RMK TN19.9 BIRD HAZARD RWY 22/04 PP000=
SP	23/01/2026 11:22->	
SPECI SPSO 231122Z 08004KT 3000 1000SW FU NSC 20/18 Q1013=
SA	23/01/2026 11:00->	
METAR SPSO 231100Z 04002KT 5000 2000SW FU NSC 20/18 Q1012 RMK PP000=
SA	23/01/2026 10:00->	
METAR SPSO 231000Z 02002KT CAVOK 21/19 Q1012 RMK PP000=
SA	23/01/2026 09:00->	
METAR SPSO 230900Z VRB01KT 9999 SCT070 22/19 Q1011 RMK PP000=
SA	23/01/2026 08:00->	
METAR SPSO 230800Z 09003KT CAVOK 21/19 Q1011 RMK PP000=
SA	23/01/2026 07:00->	
METAR SPSO 230700Z 19004KT CAVOK 22/20 Q1012 RMK PP000=
SA	23/01/2026 06:00->	
METAR SPSO 230600Z 18003KT CAVOK 23/19 Q1012 RMK PP000=
SA	23/01/2026 05:00->	
METAR SPSO 230500Z 21004KT CAVOK 23/20 Q1012 RMK PP000=
SA	23/01/2026 04:00->	
METAR SPSO 230400Z 15003KT CAVOK 22/20 Q1012 RMK PP000=
SA	23/01/2026 03:00->	
METAR SPSO 230300Z 18004KT CAVOK 22/20 Q1012 RMK PP000=
SA	23/01/2026 02:00->	
METAR SPSO 230200Z 16004KT CAVOK 22/20 Q1012 RMK PP000=
SA	23/01/2026 01:00->	
METAR SPSO 230100Z 21005KT CAVOK 23/20 Q1011 RMK PP000=
SA	23/01/2026 00:00->	
METAR SPSO 230000Z 22008KT CAVOK 24/20 Q1010 RMK PP000=
SA	22/01/2026 23:00->	
METAR SPSO 222300Z 26008KT 9999 FEW050 24/20 Q1010 RMK BIRD HAZARD RWY 22/04 PP000=
SA	22/01/2026 22:00->	
METAR SPSO 222200Z 28007KT CAVOK 24/21 Q1009 RMK TX25.1 BIRD HAZARD RWY 22/04 PP000=
SA	22/01/2026 21:00->	
METAR SPSO 222100Z 29008KT 260V320 9999 FEW050 25/21 Q1010 RMK BIRD HAZARD RWY 22/04 PP000=
SA	22/01/2026 20:00->	
METAR SPSO 222000Z 29008KT 9999 FEW020 BKN050 24/21 Q1011 RMK BIRD HAZARD RWY 22/04 PP000=
SA	22/01/2026 19:00->	
METAR SPSO 221900Z 30009KT 9999 FEW020 OVC050 24/21 Q1011 RMK BIRD HAZARD RWY 22/04 PP000=
SA	22/01/2026 18:00->	
METAR SPSO 221800Z 30008KT 9999 FEW040 OVC050 25/20 Q1012 RMK BIRD HAZARD RWY 22/04 PP000=
SA	22/01/2026 17:00->	
METAR SPSO 221700Z 31007KT 9999 OVC050 24/20 Q1012 RMK BIRD HAZARD RWY 22/04 PP000=
SA	22/01/2026 16:00->	
METAR SPSO 221600Z 33005KT 300V360 8000 OVC050 23/20 Q1012 RMK BR BIRD HAZARD RWY 22/04 PP000=
SP	22/01/2026 15:10->	
SPECI SPSO 221510Z 33005KT 6000 OVC050 23/21 Q1013=
SA	22/01/2026 15:00->	
METAR SPSO 221500Z 32004KT 4000 BR OVC050 23/20 Q1013 RMK BIRD HAZARD RWY 22/04 PP000=
SA	22/01/2026 14:00->	
METAR SPSO 221400Z 33004KT 3000 BR OVC050 22/21 Q1013 RMK BIRD HAZARD RWY 22/04 PP000=
SP	22/01/2026 13:26->	
SPECI SPSO 221326Z VRB01KT 3000 BR FEW006 OVC050 22/21 Q1012=
SA	22/01/2026 13:00->	
METAR SPSO 221300Z VRB02KT 3000 BR SCT003 OVC006 21/20 Q1012 RMK BIRD HAZARD RWY 22/04 PP000=
SP	22/01/2026 12:29->	
SPECI SPSO 221229Z 32003KT 3000 BR BKN006 21/20 Q1012=
SA	22/01/2026 12:00->	
METAR SPSO 221200Z VRB01KT 3000 BR OVC003 21/20 Q1012 RMK TN20.8 BIRD HAZARD RWY 22/04 PP000=
SA	22/01/2026 11:00->	
METAR SPSO 221100Z VRB02KT 4000 BR OVC003 21/20 Q1011 RMK BIRD HAZARD RWY 22/04 PP000=
SP	22/01/2026 10:30->	
SPECI SPSO 221030Z VRB02KT 7000 BKN003 21/20 Q1011=
SA	22/01/2026 10:00->	
METAR SPSO 221000Z 02003KT 7000 SCT003 OVC010 21/20 Q1011 RMK BIRD HAZARD RWY 22/04 PP000=
SA	22/01/2026 09:00->	
METAR SPSO 220900Z 01004KT 9000 BKN010 21/20 Q1011 RMK BIRD HAZARD RWY 22/04 PP000=
SP	22/01/2026 08:28->	
SPECI SPSO 220828Z 36003KT 9000 BKN010 22/20 Q1011 RMK BIRD HAZARD RWY 22/04 PP000=
SA	22/01/2026 08:00->	
METAR SPSO 220800Z 36003KT 9000 FEW011 22/20 Q1011 RMK BIRD HAZARD RWY 22/04 PP000=
SA	22/01/2026 07:00->	
METAR SPSO 220700Z VRB02KT 9000 SCT011 22/20 Q1011 RMK BIRD HAZARD RWY 22/04 PP000=
SA	22/01/2026 06:00->	
METAR SPSO 220600Z 36003KT 9999 BKN011 22/20 Q1012 RMK BIRD HAZARD RWY 22/04 PP000=
SA	22/01/2026 05:00->	
METAR SPSO 220500Z 32004KT 9999 OVC011 23/21 Q1013 RMK BIRD HAZARD RWY 22/04 PP000=
SA	22/01/2026 04:00->	
METAR SPSO 220400Z 33004KT 9999 SCT011 23/21 Q1013 RMK BIRD HAZARD RWY 22/04 PP000=
SA	22/01/2026 03:00->	
METAR SPSO 220300Z 21007KT 9999 FEW011 23/20 Q1013 RMK BIRD HAZARD RWY 22/04 PP000=
SA	22/01/2026 02:00->	
METAR SPSO 220200Z VRB03KT 9999 BKN010 23/21 Q1013 RMK BIRD HAZARD RWY 22/04 PP000=
SP	22/01/2026 01:27->	
SPECI SPSO 220127Z 23006KT 9999 BKN010 23/21 Q1012=
SA	22/01/2026 01:00->	
METAR SPSO 220100Z 23006KT 9999 SCT012 23/21 Q1012 RMK BIRD HAZARD RWY 22/04 PP000=
SA	22/01/2026 00:00->	
METAR SPSO 220000Z 26005KT 210V320 9999 SCT012 24/21 Q1011 RMK BIRD HAZARD RWY 22/04 PP000=
SA	21/01/2026 23:00->	
METAR SPSO 212300Z 25007KT 210V300 CAVOK 25/20 Q1010 RMK BIRD HAZARD RWY 22/04 PP000=
SA	21/01/2026 22:00->	
METAR SPSO 212200Z 29007KT CAVOK 24/21 Q1010 RMK TX25.8 BIRD HAZARD RWY 22/04 PP000=
SA	21/01/2026 21:00->	
METAR SPSO 212100Z 29010KT CAVOK 25/21 Q1010 RMK BIRD HAZARD RWY 22/04 PP000=
SA	21/01/2026 20:00->	
METAR SPSO 212000Z 28008KT CAVOK 26/21 Q1010 RMK BIRD HAZARD RWY 22/04 PP000=
SA	21/01/2026 19:00->	
METAR SPSO 211900Z 29009KT CAVOK 24/21 Q1010 RMK BIRD HAZARD RWY 22/04 PP000=
SA	21/01/2026 18:00->	
METAR SPSO 211800Z 30007KT 260V320 CAVOK 24/20 Q1011 RMK BIRD HAZARD RWY 22/04 PP000=
SA	21/01/2026 17:00->	
METAR SPSO 211700Z 30008KT CAVOK 23/20 Q1011 RMK BIRD HAZARD RWY 22/04 PP000=
SA	21/01/2026 16:00->	
METAR SPSO 211600Z 30007KT 270V330 CAVOK 24/20 Q1011 RMK BIRD HAZARD RWY 22/04 PP000=
SA	21/01/2026 15:00->	
METAR SPSO 211500Z 31007KT 9000 NSC 23/20 Q1012 RMK BIRD HAZARD RWY 22/04 PP000=
SA	21/01/2026 14:00->	
METAR SPSO 211400Z 35005KT 280V040 6000 NSC 23/20 Q1012 RMK BR BIRD HAZARD RWY 22/04 PP000=
SP	21/01/2026 13:11->	
SPECI SPSO 211311Z 01005KT 340V040 5000 BR SCT006 22/20 Q1012=
SA	21/01/2026 13:00->	
METAR SPSO 211300Z 02005KT 4000 BR BKN006 21/20 Q1012 RMK BIRD HAZARD RWY 22/04 PP000=
SP	21/01/2026 12:37->	
SPECI SPSO 211237Z 34004KT 310V010 4000 BR OVC006 21/20 Q1012=
SA	21/01/2026 12:00->	
METAR SPSO 211200Z VRB02KT 2000 BR OVC005 21/20 Q1012 RMK TN19.8 BIRD HAZARD RWY 22/04 PP000=
SP	21/01/2026 11:19->	
SPECI SPSO 211119Z 06002KT 1500 BR OVC005 20/19 Q1011=
SP	21/01/2026 11:06->	
SPECI SPSO 211106Z 08003KT 1500 BR SCT006 20/19 Q1011=
SA	21/01/2026 11:00->	
METAR SPSO 211100Z 08003KT 3000 BR SCT005 20/19 Q1011 RMK PP000=
SA	21/01/2026 10:00->	
METAR SPSO 211000Z VRB01KT 8000 OVC005 21/20 Q1010 RMK BR PP000=
SA	21/01/2026 09:00->	
METAR SPSO 210900Z 10003KT 8000 OVC005 21/20 Q1010 RMK BR PP000=
SA	21/01/2026 08:00->	
METAR SPSO 210800Z VRB02KT 8000 OVC004 21/20 Q1011 RMK BR PP000=
SA	21/01/2026 07:00->	
METAR SPSO 210700Z VRB01KT 8000 SCT008 22/20 Q1011 RMK BR PP000=
SP	21/01/2026 06:15->	
SPECI SPSO 210615Z 34002KT 8000 BKN008 22/20 Q1011=
SA	21/01/2026 06:00->	
METAR SPSO 210600Z 36002KT 8000 FEW007 22/20 Q1011 RMK BR PP000=
SP	21/01/2026 05:29->	
SPECI SPSO 210529Z 36002KT 8000 BKN007 22/20 Q1012=
SA	21/01/2026 05:00->	
METAR SPSO 210500Z 34002KT CAVOK 22/20 Q1012 RMK PP000=
SA	21/01/2026 04:00->	
METAR SPSO 210400Z 33005KT CAVOK 22/20 Q1012 RMK PP000=
SA	21/01/2026 03:00->	
METAR SPSO 210300Z 19003KT 130V250 CAVOK 23/19 Q1012 RMK PP000=
SA	21/01/2026 02:00->	
METAR SPSO 210200Z 23005KT CAVOK 23/20 Q1011 RMK PP000=
SA	21/01/2026 01:00->	
METAR SPSO 210100Z 22004KT CAVOK 23/20 Q1011 RMK PP000=
SA	21/01/2026 00:00->	
METAR SPSO 210000Z 21006KT CAVOK 23/20 Q1010 RMK BIRD HAZARD RWY 22/04 PP000=
SA	20/01/2026 23:00->	
METAR SPSO 202300Z 31004KT CAVOK 23/20 Q1010 RMK BIRD HAZARD RWY 22/04 PP000=
SA	20/01/2026 22:00->	
METAR SPSO 202200Z 29005KT 250V320 CAVOK 24/20 Q1009 RMK TX25.9 BIRD HAZARD RWY 22/04 PP000=
SA	20/01/2026 21:00->	
METAR SPSO 202100Z 31006KT CAVOK 25/21 Q1009 RMK BIRD HAZARD RWY 22/04 PP000=
SA	20/01/2026 20:00->	
METAR SPSO 202000Z 29006KT 250V320 CAVOK 24/20 Q1009 RMK BIRD HAZARD RWY 22/04 PP000=
SA	20/01/2026 19:00->	
METAR SPSO 201900Z 31009KT 280V340 CAVOK 24/20 Q1010 RMK BIRD HAZARD RWY 22/04 PP000=
SA	20/01/2026 18:00->	
METAR SPSO 201800Z 30008KT CAVOK 25/19 Q1011 RMK BIRD HAZARD RWY 22/04 PP000=
SA	20/01/2026 17:00->	
METAR SPSO 201700Z 29007KT 260V320 CAVOK 24/20 Q1011 RMK BIRD HAZARD RWY 22/04 PP000=
SA	20/01/2026 16:00->	
METAR SPSO 201600Z 31009KT CAVOK 24/19 Q1011 RMK BIRD HAZARD RWY 22/04 PP000=
SA	20/01/2026 15:00->	
METAR SPSO 201500Z 30006KT 9999 BKN060 24/19 Q1011 RMK BIRD HAZARD RWY 22/04 PP000=
SA	20/01/2026 14:00->	
METAR SPSO 201400Z 32005KT 8000 OVC060 23/19 Q1011 RMK HZ BIRD HAZARD RWY 22/04 PP000=
SA	20/01/2026 13:00->	
METAR SPSO 201300Z 02003KT 350V060 8000 OVC060 23/19 Q1011 RMK HZ BIRD HAZARD RWY 22/04 PP000=
SA	20/01/2026 12:00->	
METAR SPSO 201200Z 08002KT 8000 BKN100 22/19 Q1011 RMK BR TN21.0 BIRD HAZARD RWY 22/04 PP000=
SA	20/01/2026 11:00->	
METAR SPSO 201100Z 09002KT 7000 BKN100 21/19 Q1010 RMK BR BIRD HAZARD RWY 22/04 PP000=
SA	20/01/2026 10:00->	
METAR SPSO 201000Z 03002KT 9999 SCT050 21/19 Q1010 RMK BIRD HAZARD RWY 22/04 PP000=
SA	20/01/2026 09:00->	
METAR SPSO 200900Z 03004KT 9999 SCT050 21/19 Q1010 RMK PP000=
SA	20/01/2026 08:00->	
METAR SPSO 200800Z 35003KT 9999 SCT050 22/20 Q1010 RMK PP000=
SA	20/01/2026 07:00->	
METAR SPSO 200700Z VRB02KT 9999 BKN050 22/19 Q1010 RMK PP000=
SA	20/01/2026 06:00->	
METAR SPSO 200600Z 22003KT 9999 BKN050 22/19 Q1011 RMK PP000=
SA	20/01/2026 05:00->	
METAR SPSO 200500Z 21005KT 9999 OVC060 22/19 Q1011 RMK BIRD HAZARD RWY 22/04 PP000=
SA	20/01/2026 04:00->	
METAR SPSO 200400Z 21006KT 9999 OVC060 23/19 Q1012 RMK PP000=
SA	20/01/2026 03:00->	
METAR SPSO 200300Z 23005KT 190V280 9999 OVC060 23/19 Q1012 RMK PP000=
SA	20/01/2026 02:00->	
METAR SPSO 200200Z 24007KT 9999 OVC060 23/19 Q1012 RMK PP000=
SA	20/01/2026 01:00->	
METAR SPSO 200100Z 25007KT 9999 BKN050 23/20 Q1011 RMK PP000=
SA	20/01/2026 00:00->	
METAR SPSO 200000Z 32004KT 270V360 CAVOK 22/20 Q1010 RMK BIRD HAZARD RWY 22/04 PP000=
SA	19/01/2026 23:00->	
METAR SPSO 192300Z 30004KT 260V350 9999 FEW060 23/19 Q1010 RMK BIRD HAZARD RWY 22/04 PP000=
SA	19/01/2026 22:00->	
METAR SPSO 192200Z 31007KT CAVOK 23/20 Q1009 RMK TX24.1 BIRD HAZARD RWY 22/04 PP000=
SA	19/01/2026 21:00->	
METAR SPSO 192100Z 30007KT CAVOK 23/20 Q1009 RMK BIRD HAZARD RWY 22/04 PP000=
SA	19/01/2026 20:00->	
METAR SPSO 192000Z 30007KT CAVOK 22/20 Q1009 RMK BIRD HAZARD RWY 22/04 PP000=
SA	19/01/2026 19:00->	
METAR SPSO 191900Z 32008KT CAVOK 22/20 Q1010 RMK BIRD HAZARD RWY 22/04 PP000=
SA	19/01/2026 18:00->	
METAR SPSO 191800Z 29008KT CAVOK 23/20 Q1010 RMK BIRD HAZARD RWY 22/04 PP000=
SA	19/01/2026 17:00->	
METAR SPSO 191700Z 30007KT CAVOK 23/20 Q1011 RMK BIRD HAZARD RWY 22/04 PP000=
SA	19/01/2026 16:00->	
METAR SPSO 191600Z 31009KT CAVOK 23/20 Q1011 RMK BIRD HAZARD RWY 22/04 PP000=
SA	19/01/2026 15:00->	
METAR SPSO 191500Z 32008KT 9999 FEW013 24/20 Q1011 RMK BIRD HAZARD RWY 22/04 PP000=
SP	19/01/2026 14:10->	
SPECI SPSO 191410Z 33009KT 9999 SCT013 23/20 Q1012=
SA	19/01/2026 14:00->	
METAR SPSO 191400Z 33007KT 310V010 9999 BKN013 23/20 Q1012 RMK BIRD HAZARD RWY 22/04 PP000=
SP	19/01/2026 13:11->	
SPECI SPSO 191311Z 03005KT 9999 OVC011 22/19 Q1011=
SA	19/01/2026 13:00->	
METAR SPSO 191300Z 03006KT 9999 OVC009 22/20 Q1011 RMK BIRD HAZARD RWY 22/04 PP000=
SA	19/01/2026 12:00->	
METAR SPSO 191200Z 02007KT 9999 OVC007 21/20 Q1011 RMK TN19.7 BIRD HAZARD RWY 22/04 PP000=
SA	19/01/2026 11:00->	
METAR SPSO 191100Z 03006KT 6000 OVC005 21/19 Q1011 RMK BR PP000=
SA	19/01/2026 10:00->	
METAR SPSO 191000Z 02007KT 9999 OVC005 21/19 Q1010 RMK PP000=
SA	19/01/2026 09:00->	
METAR SPSO 190900Z 01005KT 8000 BKN008 21/19 Q1010 RMK BR PP000=
SA	19/01/2026 08:00->	
METAR SPSO 190800Z VRB01KT 8000 BKN008 21/19 Q1010 RMK BR PP000=
SA	19/01/2026 07:00->	
METAR SPSO 190700Z VRB01KT CAVOK 21/19 Q1010 RMK PP000=
SA	19/01/2026 06:00->	
METAR SPSO 190600Z 28003KT 240V320 CAVOK 21/18 Q1010 RMK PP000=
SA	19/01/2026 05:00->	
METAR SPSO 190500Z VRB01KT CAVOK 20/18 Q1011 RMK PP000=
SA	19/01/2026 04:00->	
METAR SPSO 190400Z 24004KT CAVOK 20/18 Q1011 RMK PP000=
SA	19/01/2026 03:00->	
METAR SPSO 190300Z VRB01KT CAVOK 21/19 Q1010 RMK PP000=
SA	19/01/2026 02:00->	
METAR SPSO 190200Z 19006KT 150V220 CAVOK 21/19 Q1010 RMK PP000=
SA	19/01/2026 01:00->	
METAR SPSO 190100Z 22014KT CAVOK 21/19 Q1009 RMK PP000=
SA	19/01/2026 00:00->	
METAR SPSO 190000Z 22016KT CAVOK 22/19 Q1008 RMK BIRD HAZARD RWY 22/04 PP000=
SA	18/01/2026 23:00->	
METAR SPSO 182300Z 22016KT CAVOK 23/19 Q1007 RMK BIRD HAZARD RWY 22/04 PP000=
SA	18/01/2026 22:00->	
METAR SPSO 182200Z 22016KT CAVOK 24/19 Q1006 RMK TX24.7 BIRD HAZARD RWY 22/04 PP000=
SA	18/01/2026 21:00->	
METAR SPSO 182100Z 27010KT CAVOK 23/18 Q1006 RMK BIRD HAZARD RWY 22/04 PP000=
SA	18/01/2026 20:00->	
METAR SPSO 182000Z 23011KT CAVOK 24/18 Q1006 RMK BIRD HAZARD RWY 22/04 PP000=
SA	18/01/2026 19:00->	
METAR COR SPSO 181900Z 29006KT CAVOK 24/18 Q1007 RMK BIRD HAZARD RWY 22/04 PP000=
SA	18/01/2026 18:00->	
METAR SPSO 181800Z 26008KT CAVOK 22/18 Q1007 RMK BIRD HAZARD RWY 22/04 PP000=
SA	18/01/2026 17:00->	
METAR SPSO 181700Z 30008KT CAVOK 22/18 Q1008 RMK BIRD HAZARD RWY 22/04 PP000=
SA	18/01/2026 16:00->	
METAR SPSO 181600Z 30007KT 280V340 CAVOK 22/18 Q1009 RMK BIRD HAZARD RWY 22/04 PP000=
SA	18/01/2026 15:00->	
METAR SPSO 181500Z 31009KT CAVOK 22/19 Q1009 RMK BIRD HAZARD RWY 22/04 PP000=
SA	18/01/2026 14:00->	
METAR SPSO 181400Z 29006KT 9000 NSC 23/19 Q1009 RMK BIRD HAZARD RWY 22/04 PP000=
SA	18/01/2026 13:00->	
METAR SPSO 181300Z 35003KT 300V060 6000 NSC 23/19 Q1009 RMK HZ BIRD HAZARD RWY 22/04 PP000=
SP	18/01/2026 12:37->	
SPECI SPSO 181237Z VRB02KT 5000 HZ NSC 23/19 Q1009=
SA	18/01/2026 12:00->	
METAR SPSO 181200Z VRB01KT 3000 FU NSC 21/18 Q1009 RMK TN19.7 BIRD HAZARD RWY 22/04 PP000=
SA	18/01/2026 11:00->	
METAR SPSO 181100Z 17002KT 9000 NSC 20/17 Q1009 RMK FU PP000=
SA	18/01/2026 10:00->	
METAR SPSO 181000Z 19004KT CAVOK 20/18 Q1008 RMK PP000=
SA	18/01/2026 09:00->	
METAR SPSO 180900Z 21008KT CAVOK 20/18 Q1008 RMK PP000=
SA	18/01/2026 08:00->	
METAR SPSO 180800Z 21010KT CAVOK 20/18 Q1008 RMK PP000=
SA	18/01/2026 07:00->	
METAR SPSO 180700Z 21009KT CAVOK 20/18 Q1008 RMK PP000=
SA	18/01/2026 06:00->	
METAR SPSO 180600Z 21010KT CAVOK 21/18 Q1008 RMK PP000=
SA	18/01/2026 05:00->	
METAR SPSO 180500Z 21014KT CAVOK 21/19 Q1009 RMK PP000=
SA	18/01/2026 04:00->	
METAR SPSO 180400Z 22013KT CAVOK 20/18 Q1010 RMK PP000=
SA	18/01/2026 03:00->	
METAR SPSO 180300Z 21011KT CAVOK 21/18 Q1010 RMK PP000=
SA	18/01/2026 02:00->	
METAR SPSO 180200Z 22014KT CAVOK 21/18 Q1009 RMK PP000=
SA	18/01/2026 01:00->	
METAR SPSO 180100Z 22017KT CAVOK 22/18 Q1009 RMK PP000=
SA	18/01/2026 00:00->	
METAR SPSO 180000Z 21018KT CAVOK 22/19 Q1008 RMK BIRD HAZARD RWY 22/04 PP000=
SA	17/01/2026 23:00->	
METAR SPSO 172300Z 22018KT CAVOK 23/19 Q1007 RMK BIRD HAZARD RWY 22/04 PP000=
SA	17/01/2026 22:00->	
METAR SPSO 172200Z 22020KT CAVOK 23/19 Q1007 RMK TX26.4 BIRD HAZARD RWY 22/04 PP000=
SA	17/01/2026 21:00->	
METAR SPSO 172100Z 22022KT CAVOK 24/19 Q1007 RMK BIRD HAZARD RWY 22/04 PP000=
SA	17/01/2026 20:00->	
METAR SPSO 172000Z 22021KT CAVOK 25/19 Q1007 RMK BIRD HAZARD RWY 22/04 PP000=
SA	17/01/2026 19:00->	
METAR SPSO 171900Z 24014KT CAVOK 25/19 Q1008 RMK BIRD HAZARD RWY 22/04 PP000=
SA	17/01/2026 18:00->	
METAR SPSO 171800Z 28007KT CAVOK 25/19 Q1008 RMK BIRD HAZARD RWY 22/04 PP000=
SA	17/01/2026 17:00->	
METAR SPSO 171700Z 27007KT CAVOK 23/19 Q1009 RMK BIRD HAZARD RWY 22/04 PP000=
SA	17/01/2026 16:00->	
METAR SPSO 171600Z 29006KT 270V330 CAVOK 24/19 Q1010 RMK BIRD HAZARD RWY 22/04 PP000=
SA	17/01/2026 15:00->	
METAR SPSO 171500Z 30007KT CAVOK 23/19 Q1010 RMK BIRD HAZARD RWY 22/04 PP000=
SA	17/01/2026 14:00->	
METAR SPSO 171400Z 30005KT CAVOK 23/19 Q1010 RMK BIRD HAZARD RWY 22/04 PP000=
SA	17/01/2026 13:00->	
METAR SPSO 171300Z VRB02KT 9000 NSC 23/19 Q1010 RMK HZ BIRD HAZARD RWY 22/04 PP000=
SA	17/01/2026 12:00->	
METAR SPSO 171200Z 21003KT 6000 NSC 21/18 Q1010 RMK TN20.3 BR BIRD HAZARD RWY 22/04 PP000=
SA	17/01/2026 11:00->	
METAR SPSO 171100Z 19003KT 160V220 CAVOK 21/18 Q1009 RMK PP000=
SA	17/01/2026 10:00->	
METAR SPSO 171000Z 20007KT CAVOK 21/18 Q1008 RMK PP000=
SA	17/01/2026 09:00->	
METAR SPSO 170900Z 20008KT CAVOK 21/18 Q1008 RMK PP000=
SA	17/01/2026 08:00->	
METAR SPSO 170800Z 20009KT CAVOK 21/18 Q1008 RMK PP000=
SA	17/01/2026 07:00->	
METAR SPSO 170700Z 21014KT CAVOK 21/18 Q1009 RMK PP000=
SA	17/01/2026 06:00->	
METAR SPSO 170600Z 21014KT CAVOK 21/18 Q1009 RMK PP000=
SA	17/01/2026 05:00->	
METAR SPSO 170500Z 21013KT CAVOK 22/19 Q1010 RMK BIRD HAZARD RWY 22/04 PP000=
SA	17/01/2026 04:00->	
METAR SPSO 170400Z 21010KT CAVOK 22/19 Q1010 RMK BIRD HAZARD RWY 22/04 PP000=
SA	17/01/2026 03:00->	
METAR SPSO 170300Z 21013KT CAVOK 22/19 Q1010 RMK BIRD HAZARD RWY 22/04 PP000=
SA	17/01/2026 02:00->	
METAR SPSO 170200Z 20015KT CAVOK 22/19 Q1010 RMK BIRD HAZARD RWY 22/04 PP000=
SA	17/01/2026 01:00->	
METAR SPSO 170100Z 21016KT CAVOK 23/19 Q1010 RMK BIRD HAZARD RWY 22/04 PP000=
SA	17/01/2026 00:00->	
METAR SPSO 170000Z 21017KT 9999 BKN070 23/19 Q1010 RMK BIRD HAZARD RWY 22/04 PP000=
SA	16/01/2026 23:00->	
METAR SPSO 162300Z 21019KT 9999 SCT070 24/19 Q1009 RMK BIRD HAZARD RWY 22/04 PP000=
SA	16/01/2026 22:00->	
METAR SPSO 162200Z 21019KT CAVOK 25/19 Q1009 RMK TX27.8 BIRD HAZARD RWY 22/04 PP000=
SA	16/01/2026 21:00->	
METAR SPSO 162100Z 22021KT CAVOK 27/19 Q1008 RMK BIRD HAZARD RWY 22/04 PP000=
SA	16/01/2026 20:00->	
METAR SPSO 162000Z 22019KT CAVOK 27/19 Q1009 RMK BIRD HAZARD RWY 22/04 PP000=
SA	16/01/2026 19:00->	
METAR SPSO 161900Z 23016KT CAVOK 27/19 Q1010 RMK BIRD HAZARD RWY 22/04 PP000=
SA	16/01/2026 18:00->	
METAR SPSO 161800Z 26007KT CAVOK 26/19 Q1011 RMK BIRD HAZARD RWY 22/04 PP000=
SA	16/01/2026 17:00->	
METAR SPSO 161700Z 28008KT 250V310 CAVOK 25/20 Q1011 RMK BIRD HAZARD RWY 22/04 PP000=
SA	16/01/2026 16:00->	
METAR SPSO 161600Z 29009KT CAVOK 24/20 Q1012 RMK BIRD HAZARD RWY 22/04 PP000=
SA	16/01/2026 15:00->	
METAR SPSO 161500Z 27007KT CAVOK 24/20 Q1012 RMK BIRD HAZARD RWY 22/04 PP000=
SA	16/01/2026 14:00->	
METAR SPSO 161400Z 24005KT 8000 OVC070 22/20 Q1013 RMK BR BIRD HAZARD RWY 22/04 PP000=
SA	16/01/2026 13:00->	
METAR SPSO 161300Z 26006KT 8000 OVC070 22/19 Q1013 RMK BR BIRD HAZARD RWY 22/04 PP000=
SA	16/01/2026 12:00->	
METAR SPSO 161200Z 10002KT 8000 BKN070 22/19 Q1012 RMK BR TN20.7 BIRD HAZARD RWY 22/04 PP000=
SA	16/01/2026 11:00->	
METAR SPSO 161100Z 04004KT 8000 SCT070 21/19 Q1012 RMK FU PP000=
SA	16/01/2026 10:00->	
METAR SPSO 161000Z 04005KT 8000 FEW009 22/19 Q1011 RMK FU PP000=
SP	16/01/2026 09:21->	
SPECI SPSO 160921Z VRB02KT 4000 FU FEW009 21/18 Q1012=
SA	16/01/2026 09:00->	
METAR SPSO 160900Z VRB02KT 9999 SCT010 21/18 Q1012 RMK PP000=
SA	16/01/2026 08:00->	
METAR SPSO 160800Z 01004KT 340V040 9999 FEW009 BKN070 22/20 Q1012 RMK PP000=
SA	16/01/2026 07:00->	
METAR SPSO 160700Z VRB01KT 9999 SCT009 BKN070 22/19 Q1012 RMK PP000=
SA	16/01/2026 06:00->	
METAR SPSO 160600Z VRB02KT 9999 BKN009 OVC070 22/19 Q1012 RMK PP000=
SA	16/01/2026 05:00->	
METAR SPSO 160500Z VRB02KT 9999 OVC070 22/19 Q1013 RMK PP000=
SA	16/01/2026 04:00->	
METAR SPSO 160400Z VRB01KT 9999 OVC070 22/19 Q1014 RMK PP000=
SA	16/01/2026 03:00->	
METAR SPSO 160300Z 19004KT 9999 OVC070 22/19 Q1013 RMK PP000=
SA	16/01/2026 02:00->	
METAR SPSO 160200Z 20007KT 9999 OVC070 21/18 Q1013 RMK PP000=
SA	16/01/2026 01:00->	
METAR SPSO 160100Z 20009KT 9999 OVC070 21/19 Q1012 RMK PP000=
SA	16/01/2026 00:00->	
METAR SPSO 160000Z 22009KT CAVOK 22/19 Q1011 RMK BIRD HAZARD RWY 22/04 PP000=
SA	15/01/2026 23:00->	
METAR SPSO 152300Z 26005KT 190V310 CAVOK 23/19 Q1011 RMK BIRD HAZARD RWY 22/04 PP000=
SA	15/01/2026 22:00->	
METAR SPSO 152200Z 21013KT CAVOK 24/18 Q1010 RMK TX26.6 BIRD HAZARD RWY 22/04 PP000=
SA	15/01/2026 21:00->	
METAR SPSO 152100Z 21016KT CAVOK 25/19 Q1010 RMK BIRD HAZARD RWY 22/04 PP000=
SA	15/01/2026 20:00->	
METAR SPSO 152000Z 22014KT CAVOK 25/18 Q1010 RMK BIRD HAZARD RWY 22/04 PP000=
SA	15/01/2026 19:00->	
METAR SPSO 151900Z 23010KT CAVOK 26/19 Q1010 RMK BIRD HAZARD RWY 22/04 PP000=
SA	15/01/2026 18:00->	
METAR SPSO 151800Z 28009KT CAVOK 24/18 Q1010 RMK BIRD HAZARD RWY 22/04 PP000=
SA	15/01/2026 17:00->	
METAR SPSO 151700Z 27009KT CAVOK 23/18 Q1010 RMK BIRD HAZARD RWY 22/04 PP000=
SA	15/01/2026 16:00->	
METAR SPSO 151600Z 29009KT CAVOK 24/19 Q1011 RMK BIRD HAZARD RWY 22/04 PP000=
SA	15/01/2026 15:00->	
METAR SPSO 151500Z 28007KT CAVOK 24/19 Q1011 RMK BIRD HAZARD RWY 22/04 PP000=
SA	15/01/2026 14:00->	
METAR SPSO 151400Z 26005KT CAVOK 24/18 Q1011 RMK BIRD HAZARD RWY 22/04 PP000=
SA	15/01/2026 13:00->	
METAR SPSO 151300Z 24005KT 190V270 CAVOK 23/18 Q1011 RMK BIRD HAZARD RWY 22/04 PP000=
SA	15/01/2026 12:00->	
METAR SPSO 151200Z 20005KT CAVOK 22/18 Q1011 RMK TN21.2 BIRD HAZARD RWY 22/04 PP000=
SA	15/01/2026 11:00->	
METAR SPSO 151100Z VRB01KT CAVOK 21/17 Q1010 RMK PP000=
SA	15/01/2026 10:00->	
METAR SPSO 151000Z 19003KT CAVOK 21/17 Q1009 RMK PP000=
SA	15/01/2026 09:00->	
METAR SPSO 150900Z 20005KT CAVOK 21/17 Q1009 RMK PP000=
SA	15/01/2026 08:00->	
METAR SPSO 150800Z 18005KT CAVOK 21/17 Q1009 RMK PP000=
SA	15/01/2026 07:00->	
METAR SPSO 150700Z 19005KT CAVOK 22/17 Q1009 RMK PP000=
SA	15/01/2026 06:00->	
METAR SPSO 150600Z 20006KT CAVOK 22/18 Q1010 RMK PP000=
SA	15/01/2026 05:00->	
METAR SPSO 150500Z 20007KT CAVOK 22/18 Q1010 RMK PP000=
SA	15/01/2026 04:00->	
METAR SPSO 150400Z 20009KT CAVOK 21/18 Q1011 RMK PP000=
SA	15/01/2026 03:00->	
METAR SPSO 150300Z 20012KT CAVOK 21/18 Q1011 RMK PP000=
SA	15/01/2026 02:00->	
METAR SPSO 150200Z 20013KT CAVOK 22/18 Q1010 RMK PP000=
SA	15/01/2026 01:00->	
METAR SPSO 150100Z 20014KT CAVOK 22/19 Q1010 RMK PP000=
SA	15/01/2026 00:00->	
METAR SPSO 150000Z 21015KT CAVOK 22/18 Q1009 RMK BIRD HAZARD RWY 22/04 PP000=
SA	14/01/2026 23:00->	
METAR SPSO 142300Z 21016KT CAVOK 23/19 Q1009 RMK BIRD HAZARD RWY 22/04 PP000=
SA	14/01/2026 22:00->	
METAR SPSO 142200Z 22017KT CAVOK 25/19 Q1008 RMK TX28.6 BIRD HAZARD RWY 22/04 PP000=
SA	14/01/2026 21:00->	
METAR SPSO 142100Z 21017KT CAVOK 26/19 Q1007 RMK BIRD HAZARD RWY 22/04 PP000=
SA	14/01/2026 20:00->	
METAR SPSO 142000Z 22015KT CAVOK 27/19 Q1008 RMK BIRD HAZARD RWY 22/04 PP000=
SA	14/01/2026 19:00->	
METAR SPSO 141900Z 21018KT CAVOK 28/18 Q1008 RMK BIRD HAZARD RWY 22/04 PP000=
SA	14/01/2026 18:00->	
METAR SPSO 141800Z 22017KT CAVOK 28/18 Q1009 RMK BIRD HAZARD RWY 22/04 PP000=
SA	14/01/2026 17:00->	
METAR SPSO 141700Z 27009KT CAVOK 25/18 Q1010 RMK BIRD HAZARD RWY 22/04 PP000=
SA	14/01/2026 16:00->	
METAR SPSO 141600Z 27009KT CAVOK 25/20 Q1011 RMK BIRD HAZARD RWY 22/04 PP000=
SA	14/01/2026 15:00->	
METAR SPSO 141500Z 29008KT 260V320 CAVOK 25/19 Q1012 RMK BIRD HAZARD RWY 22/04 PP000=
SA	14/01/2026 14:00->	
METAR SPSO 141400Z 26004KT 9000 NSC 25/19 Q1012 RMK HZ BIRD HAZARD RWY 22/04 PP000=
SA	14/01/2026 13:00->	
METAR SPSO 141300Z VRB01KT 7000 NSC 24/19 Q1012 RMK HZ BIRD HAZARD RWY 22/04 PP000=
SA	14/01/2026 12:00->	
METAR SPSO 141200Z 17003KT 9000 3000NE NSC 22/18 Q1012 RMK BR TN20.9 BIRD HAZARD RWY 22/04 PP000=
SA	14/01/2026 11:00->	
METAR SPSO 141100Z 00000KT 9000 NSC 21/19 Q1011 RMK BR PP000=
SA	14/01/2026 10:00->	
METAR SPSO 141000Z 36002KT 8000 BKN007 22/20 Q1011 RMK BR PP000=
SA	14/01/2026 09:00->	
METAR SPSO 140900Z VRB01KT 9999 FEW009 22/19 Q1011 RMK PP000=
SA	14/01/2026 08:00->	
METAR SPSO 140800Z VRB02KT 9999 FEW009 22/18 Q1011 RMK FU E BIRD HAZARD RWY 22/04 PP000=
SA	14/01/2026 07:00->	
METAR SPSO 140700Z 21004KT 9999 FEW007 22/18 Q1011 RMK BIRD HAZARD RWY 22/04 PP000=
SA	14/01/2026 06:00->	
METAR SPSO 140600Z VRB02KT CAVOK 22/21 Q1012 RMK BIRD HAZARD RWY 22/04 PP000=
SA	14/01/2026 05:00->	
METAR SPSO 140500Z 32003KT CAVOK 23/20 Q1013 RMK BIRD HAZARD RWY 22/04 PP000=
SA	14/01/2026 04:00->	
METAR SPSO 140400Z VRB01KT CAVOK 22/18 Q1013 RMK BIRD HAZARD RWY 22/04 PP000=
SA	14/01/2026 03:00->	
METAR SPSO 140300Z VRB02KT CAVOK 22/19 Q1012 RMK BIRD HAZARD RWY 22/04 PP000=
SA	14/01/2026 02:00->	
METAR SPSO 140200Z 21003KT CAVOK 22/18 Q1012 RMK BIRD HAZARD RWY 22/04 PP000=
SA	14/01/2026 01:00->	
METAR SPSO 140100Z 22003KT 190V250 CAVOK 23/18 Q1012 RMK BIRD HAZARD RWY 22/04 PP000=
SA	14/01/2026 00:00->	
METAR SPSO 140000Z 20003KT 170V230 CAVOK 23/18 Q1011 RMK BIRD HAZARD RWY 22/04 PP000=
SA	13/01/2026 23:00->	
METAR SPSO 132300Z 25006KT 230V300 9999 FEW100 23/19 Q1011 RMK BIRD HAZARD RWY 22/04 PP000=
SA	13/01/2026 22:00->	
METAR SPSO 132200Z 34004KT 300V020 9999 SCT100 23/20 Q1010 RMK TX24.2 BIRD HAZARD RWY 22/04 PP000=
SA	13/01/2026 21:00->	
METAR SPSO 132100Z 32007KT 9999 SCT100 24/20 Q1010 RMK BIRD HAZARD RWY 22/04 PP000=
SA	13/01/2026 20:00->	
METAR SPSO 132000Z 31007KT 280V340 9999 SCT080 24/20 Q1010 RMK BIRD HAZARD RWY 22/04 PP000=
SA	13/01/2026 19:00->	
METAR SPSO 131900Z 32007KT CAVOK 24/19 Q1011 RMK BIRD HAZARD RWY 22/04 PP000=
SA	13/01/2026 18:00->	
METAR SPSO 131800Z 32008KT 9999 SCT060 24/19 Q1011 RMK BIRD HAZARD RWY 22/04 PP000=
SA	13/01/2026 17:00->	
METAR SPSO 131700Z 35010KT 310V010 7000 NSC 23/19 Q1012 RMK HZ BIRD HAZARD RWY 22/04 PP000=
SA	13/01/2026 16:00->	
METAR SPSO 131600Z 33007KT 300V360 7000 NSC 23/20 Q1012 RMK BR BIRD HAZARD RWY 22/04 PP000=
SA	13/01/2026 15:00->	
METAR SPSO 131500Z 32007KT 300V360 9000 FEW010 23/20 Q1013 RMK BR BIRD HAZARD RWY 22/04 PP000=
SA	13/01/2026 14:00->	
METAR SPSO 131400Z 33006KT 290V360 9000 FEW009 23/20 Q1013 RMK BR BIRD HAZARD RWY 22/04 PP000=
SA	13/01/2026 13:00->	
METAR SPSO 131300Z 35008KT 8000 SCT009 22/19 Q1012 RMK BR BIRD HAZARD RWY 22/04 PP000=
SA	13/01/2026 12:00->	
METAR SPSO 131200Z 01005KT 7000 NSC 22/19 Q1012 RMK BR TN20.6 BIRD HAZARD RWY 22/04 PP000=
SA	13/01/2026 11:00->	
METAR SPSO 131100Z 36006KT 6000 NSC 21/19 Q1011 RMK BR BIRD HAZARD RWY 22/04 PP000=
SA	13/01/2026 10:00->	
METAR SPSO 131000Z 36007KT CAVOK 21/19 Q1010 RMK BIRD HAZARD RWY 22/04 PP000=
SA	13/01/2026 09:00->	
METAR SPSO 130900Z 03003KT 340V060 CAVOK 21/19 Q1010 RMK BIRD HAZARD RWY 22/04 PP000=
SA	13/01/2026 08:00->	
METAR SPSO 130800Z 22003KT 9999 OVC070 21/17 Q1010 RMK BIRD HAZARD RWY 22/04 PP000=
SA	13/01/2026 07:00->	
METAR SPSO 130700Z 22003KT CAVOK 21/17 Q1011 RMK BIRD HAZARD RWY 22/04 PP000=
SA	13/01/2026 06:00->	
METAR SPSO 130600Z 23003KT CAVOK 21/18 Q1011 RMK BIRD HAZARD RWY 22/04 PP000=
SA	13/01/2026 05:00->	
METAR SPSO 130500Z 00000KT CAVOK 21/17 Q1011 RMK BIRD HAZARD RWY 22/04 PP000=
SA	13/01/2026 04:00->	
METAR SPSO 130400Z 19005KT CAVOK 21/17 Q1012 RMK BIRD HAZARD RWY 22/04 PP000=
SA	13/01/2026 03:00->	
METAR SPSO 130300Z 21009KT CAVOK 21/17 Q1011 RMK BIRD HAZARD RWY 22/04 PP000=
SA	13/01/2026 02:00->	
METAR SPSO 130200Z 21010KT CAVOK 21/18 Q1011 RMK BIRD HAZARD RWY 22/04 PP000=
SA	13/01/2026 01:00->	
METAR SPSO 130100Z 20008KT CAVOK 22/18 Q1011 RMK BIRD HAZARD RWY 22/04 PP000=
SA	13/01/2026 00:00->	
METAR SPSO 130000Z 21013KT CAVOK 23/18 Q1010 RMK PP000=
SA	12/01/2026 23:00->	
METAR SPSO 122300Z 22017KT CAVOK 23/18 Q1009 RMK BIRD HAZARD RWY 22/04 PP000=
SA	12/01/2026 22:00->	
METAR SPSO 122200Z 22019KT CAVOK 24/18 Q1008 RMK TX28.0 BIRD HAZARD RWY 22/04 PP000=
SA	12/01/2026 21:00->	
METAR SPSO 122100Z 23017KT CAVOK 25/18 Q1008 RMK BIRD HAZARD RWY 22/04 PP000=
SA	12/01/2026 20:00->	
METAR SPSO 122000Z 22016KT CAVOK 27/18 Q1008 RMK BIRD HAZARD RWY 22/04 PP000=
SA	12/01/2026 19:00->	
METAR SPSO 121900Z 26010KT CAVOK 28/18 Q1009 RMK BIRD HAZARD RWY 22/04 PP000=
SA	12/01/2026 18:00->	
METAR SPSO 121800Z 29007KT 270V330 CAVOK 25/19 Q1010 RMK BIRD HAZARD RWY 22/04 PP000=
SA	12/01/2026 17:00->	
METAR SPSO 121700Z 27009KT CAVOK 24/19 Q1010 RMK BIRD HAZARD RWY 22/04 PP000=
SA	12/01/2026 16:00->	
METAR SPSO 121600Z 29009KT CAVOK 24/20 Q1011 RMK BIRD HAZARD RWY 22/04 PP000=
SA	12/01/2026 15:00->	
METAR SPSO 121500Z 29007KT CAVOK 24/20 Q1011 RMK BIRD HAZARD RWY 22/04 PP000=
SA	12/01/2026 14:00->	
METAR SPSO 121400Z 29003KT 230V340 9000 NSC 23/20 Q1012 RMK FU BIRD HAZARD RWY 22/04 PP000=
SA	12/01/2026 13:00->	
METAR SPSO 121300Z 29004KT 250V350 9999 SCT007 22/20 Q1012 RMK BIRD HAZARD RWY 22/04 PP000=
SA	12/01/2026 12:00->	
METAR SPSO 121200Z 31003KT 270V340 CAVOK 22/19 Q1012 RMK TN20.8 BIRD HAZARD RWY 22/04 PP000=
SA	12/01/2026 11:00->	
METAR SPSO 121100Z 18003KT 100V210 CAVOK 22/18 Q1011 RMK PP000=
SA	12/01/2026 10:00->	
METAR SPSO 121000Z 17004KT 9999 FEW015 22/18 Q1011 RMK PP000=
SA	12/01/2026 09:00->	
METAR SPSO 120900Z 08001KT 9999 FEW015 21/18 Q1011 RMK PP000=
SA	12/01/2026 08:00->	
METAR SPSO 120800Z VRB02KT 9999 FEW015 22/19 Q1011 RMK PP000=
SA	12/01/2026 07:00->	
METAR SPSO 120700Z 19003KT 9999 FEW015 21/18 Q1011 RMK PP000=
SA	12/01/2026 06:00->	
METAR SPSO 120600Z 20006KT 9999 FEW015 21/18 Q1011 RMK PP000=
SA	12/01/2026 05:00->	
METAR SPSO 120500Z 25004KT CAVOK 21/18 Q1012 RMK PP000=
SA	12/01/2026 04:00->	
METAR SPSO 120400Z 22006KT CAVOK 21/19 Q1012 RMK BIRD HAZARD RWY 22/04 PP000=
SA	12/01/2026 03:00->	
METAR SPSO 120300Z 21006KT CAVOK 22/18 Q1013 RMK BIRD HAZARD RWY 22/04 PP000=
SA	12/01/2026 02:00->	
METAR SPSO 120200Z 21006KT CAVOK 22/19 Q1012 RMK BIRD HAZARD RWY 22/04 PP000=
SA	12/01/2026 01:00->	
METAR SPSO 120100Z 20008KT CAVOK 22/19 Q1011 RMK BIRD HAZARD RWY 22/04 PP000=
SA	12/01/2026 00:00->	
METAR SPSO 120000Z 21014KT CAVOK 22/19 Q1010 RMK PP000=
SA	11/01/2026 23:00->	
METAR SPSO 112300Z 21016KT CAVOK 23/19 Q1010 RMK BIRD HAZARD RWY 22/04 PP000=
SA	11/01/2026 22:00->	
METAR SPSO 112200Z 21017KT CAVOK 24/19 Q1010 RMK TX28.4 BIRD HAZARD RWY 22/04 PP000=
SA	11/01/2026 21:00->	
METAR SPSO 112100Z 21018KT CAVOK 25/19 Q1009 RMK BIRD HAZARD RWY 22/04 PP000=
SA	11/01/2026 20:00->	
METAR SPSO 112000Z 22016KT CAVOK 28/18 Q1010 RMK BIRD HAZARD RWY 22/04 PP000=
SA	11/01/2026 19:00->	
METAR SPSO 111900Z 23014KT CAVOK 28/19 Q1010 RMK BIRD HAZARD RWY 22/04 PP000=
SA	11/01/2026 18:00->	
METAR SPSO 111800Z 26010KT CAVOK 28/19 Q1011 RMK BIRD HAZARD RWY 22/04 PP000=
SA	11/01/2026 17:00->	
METAR SPSO 111700Z 26009KT CAVOK 24/19 Q1011 RMK BIRD HAZARD RWY 22/04 PP000=
SA	11/01/2026 16:00->	
METAR SPSO 111600Z 30009KT 280V340 CAVOK 24/19 Q1012 RMK BIRD HAZARD RWY 22/04 PP000=
SA	11/01/2026 15:00->	
METAR SPSO 111500Z 30006KT 270V330 CAVOK 24/19 Q1013 RMK BIRD HAZARD RWY 22/04 PP000=
SA	11/01/2026 14:00->	
METAR SPSO 111400Z 25004KT 220V280 CAVOK 24/18 Q1013 RMK BIRD HAZARD RWY 22/04 PP000=
SA	11/01/2026 13:00->	
METAR SPSO 111300Z 23003KT 190V260 CAVOK 22/18 Q1012 RMK BIRD HAZARD RWY 22/04 PP000=
SA	11/01/2026 12:00->	
METAR SPSO 111200Z 20005KT CAVOK 21/18 Q1012 RMK TN20.6 BIRD HAZARD RWY 22/04 PP000=
SA	11/01/2026 11:00->	
METAR SPSO 111100Z 18005KT CAVOK 21/17 Q1011 RMK PP000=
SA	11/01/2026 10:00->	
METAR SPSO 111000Z 16004KT CAVOK 21/18 Q1011 RMK PP000=
SA	11/01/2026 09:00->	
METAR SPSO 110900Z VRB01KT CAVOK 21/18 Q1011 RMK PP000=
SA	11/01/2026 08:00->	
METAR SPSO 110800Z 00000KT CAVOK 21/17 Q1011 RMK PP000=
SA	11/01/2026 07:00->	
METAR SPSO 110700Z 00000KT CAVOK 22/18 Q1011 RMK PP000=
SA	11/01/2026 06:00->	
METAR SPSO 110600Z 09003KT CAVOK 21/18 Q1012 RMK PP000=
SA	11/01/2026 05:00->	
METAR SPSO 110500Z 06004KT CAVOK 21/18 Q1013 RMK PP000=
SA	11/01/2026 04:00->	
METAR SPSO 110400Z VRB02KT CAVOK 22/18 Q1013 RMK PP000=
SA	11/01/2026 03:00->	
METAR SPSO 110300Z 21002KT CAVOK 22/18 Q1013 RMK PP000=
SA	11/01/2026 02:00->	
METAR SPSO 110200Z 20006KT CAVOK 22/18 Q1013 RMK PP000=
SA	11/01/2026 01:00->	
METAR SPSO 110100Z 21007KT CAVOK 23/19 Q1012 RMK PP000=
SA	11/01/2026 00:00->	
METAR SPSO 110000Z 22013KT CAVOK 23/19 Q1011 RMK BIRD HAZARD RWY 22/04 PP000=
SA	10/01/2026 23:00->	
METAR SPSO 102300Z 22017KT 9999 BKN080 24/19 Q1011 RMK BIRD HAZARD RWY 22/04 PP000=
SA	10/01/2026 22:00->	
METAR SPSO 102200Z 22018KT 9999 BKN090 24/19 Q1010 RMK TX27.1 BIRD HAZARD RWY 22/04 PP000=
SA	10/01/2026 21:00->	
METAR SPSO 102100Z 22015KT CAVOK 25/19 Q1011 RMK BIRD HAZARD RWY 22/04 PP000=
SA	10/01/2026 20:00->	
METAR SPSO 102000Z 23011KT CAVOK 27/18 Q1011 RMK BIRD HAZARD RWY 22/04 PP000=
SA	10/01/2026 19:00->	
METAR SPSO 101900Z 27008KT CAVOK 26/19 Q1011 RMK BIRD HAZARD RWY 22/04 PP000=
SA	10/01/2026 18:00->	
METAR SPSO 101800Z 26008KT CAVOK 24/19 Q1012 RMK BIRD HAZARD RWY 22/04 PP000=
SA	10/01/2026 17:00->	
METAR SPSO 101700Z 28009KT CAVOK 25/19 Q1012 RMK BIRD HAZARD RWY 22/04 PP000=
SA	10/01/2026 16:00->	
METAR SPSO 101600Z 27008KT 230V290 CAVOK 24/20 Q1013 RMK BIRD HAZARD RWY 22/04 PP000=
SA	10/01/2026 15:00->	
METAR SPSO 101500Z 29009KT 7000 NSC 24/20 Q1014 RMK HZ BIRD HAZARD RWY 22/04 PP000=
SA	10/01/2026 14:00->	
METAR SPSO 101400Z 31005KT 7000 BKN100 24/20 Q1014 RMK HZ BIRD HAZARD RWY 22/04 PP000=
SA	10/01/2026 13:00->	
METAR SPSO 101300Z VRB01KT 5000 HZ BKN100 24/19 Q1014 RMK BIRD HAZARD RWY 22/04 PP000=
SA	10/01/2026 12:00->	
METAR SPSO 101200Z VRB01KT 8000 BKN100 22/18 Q1013 RMK TN21.0 HZ BIRD HAZARD RWY 22/04 PP000=
SA	10/01/2026 11:00->	
METAR SPSO 101100Z 09002KT CAVOK 22/18 Q1013 RMK PP000=
SA	10/01/2026 10:00->	
METAR SPSO 101000Z 08003KT CAVOK 21/18 Q1012 RMK PP000=
SA	10/01/2026 09:00->	
METAR SPSO 100900Z 08003KT 050V110 CAVOK 21/19 Q1012 RMK PP000=
SA	10/01/2026 08:00->	
METAR SPSO 100800Z 01002KT CAVOK 21/19 Q1012 RMK PP000=
SA	10/01/2026 07:00->	
METAR SPSO 100700Z 32005KT 9999 SCT090 21/19 Q1012 RMK PP000=
SA	10/01/2026 06:00->	
METAR SPSO 100600Z 33005KT 9999 OVC090 22/19 Q1013 RMK PP000=
SA	10/01/2026 05:00->	
METAR SPSO 100500Z 32003KT 9999 OVC080 23/19 Q1013 RMK PP000=
SA	10/01/2026 04:00->	
METAR SPSO 100400Z 36003KT 9999 BKN080 22/19 Q1014 RMK PP000=
SA	10/01/2026 03:00->	
METAR SPSO 100300Z 34003KT 9999 OVC080 23/19 Q1014 RMK PP000=
SA	10/01/2026 02:00->	
METAR SPSO 100200Z 35005KT 9999 OVC080 22/19 Q1014 RMK PP000=
SA	10/01/2026 01:00->	
METAR SPSO 100100Z 35006KT 9999 OVC090 22/19 Q1013 RMK PP000=
SA	10/01/2026 00:00->	
METAR SPSO 100000Z 34006KT 9999 OVC080 21/19 Q1012 RMK BIRD HAZARD RWY 22/04 PP000=
SA	09/01/2026 23:00->	
METAR SPSO 092300Z 34008KT 9999 BKN080 22/19 Q1012 RMK BIRD HAZARD RWY 22/04 PP000=
SA	09/01/2026 22:00->	
METAR SPSO 092200Z 34006KT 9999 FEW010 BKN080 23/19 Q1011 RMK TX24.8 BIRD HAZARD RWY 22/04 PP000=
SA	09/01/2026 21:00->	
METAR SPSO 092100Z 25006KT 9999 BKN080 23/19 Q1011 RMK BIRD HAZARD RWY 22/04 PP000=
SA	09/01/2026 20:00->	
METAR SPSO 092000Z 30006KT 270V340 CAVOK 24/19 Q1011 RMK BIRD HAZARD RWY 22/04 PP000=
SA	09/01/2026 19:00->	
METAR SPSO 091900Z 29007KT 270V330 CAVOK 24/19 Q1011 RMK BIRD HAZARD RWY 22/04 PP000=
SA	09/01/2026 18:00->	
METAR SPSO 091800Z 29008KT CAVOK 23/19 Q1011 RMK BIRD HAZARD RWY 22/04 PP000=
SA	09/01/2026 17:00->	
METAR SPSO 091700Z 29009KT 270V330 CAVOK 23/19 Q1012 RMK BIRD HAZARD RWY 22/04 PP000=
SA	09/01/2026 16:00->	
METAR SPSO 091600Z 31009KT CAVOK 22/19 Q1012 RMK BIRD HAZARD RWY 22/04 PP000=
SA	09/01/2026 15:00->	
METAR SPSO 091500Z 34012KT CAVOK 23/19 Q1012 RMK BIRD HAZARD RWY 22/04 PP000=
SA	09/01/2026 14:00->	
METAR SPSO 091400Z 34008KT 9999 FEW011 23/19 Q1012 RMK BIRD HAZARD RWY 22/04 PP000=
SA	09/01/2026 13:00->	
METAR SPSO 091300Z 01009KT 8000 FEW007 22/19 Q1012 RMK BR BIRD HAZARD RWY 22/04 PP000=
SA	09/01/2026 12:00->	
METAR SPSO 091200Z 03007KT 6000 FEW008 21/18 Q1012 RMK TN20.4 BIRD HAZARD RWY 22/04 PP000=
SA	09/01/2026 11:00->	
METAR SPSO 091100Z 04006KT 4000 BR NSC 21/18 Q1011 RMK BIRD HAZARD RWY 22/04 PP000=
SA	09/01/2026 10:00->	
METAR SPSO 091000Z 05007KT 8000 NSC 21/18 Q1010 RMK PP000=
SA	09/01/2026 09:00->	
METAR SPSO 090900Z 01003KT 8000 NSC 21/18 Q1010 RMK PP000=
SA	09/01/2026 08:00->	
METAR SPSO 090800Z VRB01KT CAVOK 21/18 Q1010 RMK PP000=
SA	09/01/2026 07:00->	
METAR SPSO 090700Z 01004KT CAVOK 22/19 Q1010 RMK PP000=
SA	09/01/2026 06:00->	
METAR SPSO 090600Z 36006KT CAVOK 22/19 Q1010 RMK PP000=
SA	09/01/2026 05:00->	
METAR SPSO 090500Z 01006KT 8000 NSC 22/20 Q1011 RMK FU E PP000=
SA	09/01/2026 04:00->	
METAR SPSO 090400Z VRB01KT 8000 NSC 22/17 Q1011 RMK FU E PP000=
SA	09/01/2026 03:00->	
METAR SPSO 090300Z 20006KT 8000 NSC 21/17 Q1011 RMK FU E PP000=
SA	09/01/2026 02:00->	
METAR SPSO 090200Z 21014KT 8000 NSC 22/17 Q1010 RMK FU E PP000=
SA	09/01/2026 01:00->	
METAR SPSO 090100Z 21018KT 9000 NSC Q1009 RMK FU E PP000=
SA	09/01/2026 00:00->	
METAR SPSO 090000Z 22018KT CAVOK 23/17 Q1008 RMK BIRD HAZARD RWY 22/04 PP000=
SA	08/01/2026 23:00->	
METAR SPSO 082300Z 22016KT CAVOK 24/17 Q1008 RMK BIRD HAZARD RWY 22/04 PP000=
SA	08/01/2026 22:00->	
METAR SPSO 082200Z 22017KT CAVOK 26/17 Q1007 RMK TX27.1 BIRD HAZARD RWY 22/04 PP000=
SA	08/01/2026 21:00->	
METAR SPSO 082100Z 23015KT CAVOK 26/17 Q1008 RMK BIRD HAZARD RWY 22/04 PP000=
SA	08/01/2026 20:00->	
METAR SPSO 082000Z 26008KT 220V290 CAVOK 27/16 Q1008 RMK BIRD HAZARD RWY 22/04 PP000=
SA	08/01/2026 19:00->	
METAR SPSO 081900Z 29007KT CAVOK 25/18 Q1009 RMK BIRD HAZARD RWY 22/04 PP000=
SA	08/01/2026 18:00->	
METAR SPSO 081800Z 28009KT CAVOK 23/19 Q1009 RMK BIRD HAZARD RWY 22/04 PP000=
SA	08/01/2026 17:00->	
METAR SPSO 081700Z 29009KT CAVOK 23/20 Q1010 RMK BIRD HAZARD RWY 22/04 PP000=
SA	08/01/2026 16:00->	
METAR SPSO 081600Z 30008KT CAVOK 23/20 Q1010 RMK BIRD HAZARD RWY 22/04 PP000=
SA	08/01/2026 15:00->	
METAR SPSO 081500Z 33008KT 290V350 CAVOK 23/20 Q1011 RMK BIRD HAZARD RWY 22/04 PP000=
SA	08/01/2026 14:00->	
METAR SPSO 081400Z 32008KT 9000 NSC 23/20 Q1011 RMK BIRD HAZARD RWY 22/04 PP000=
SA	08/01/2026 13:00->	
METAR SPSO 081300Z 36005KT 330V040 6000 NSC 23/19 Q1011 RMK BR BIRD HAZARD RWY 22/04 PP000=
SP	08/01/2026 12:40->	
SPECI SPSO 081240Z 36004KT 320V040 5000 FU NSC 22/19 Q1011=
SA	08/01/2026 12:00->	
METAR SPSO 081200Z VRB01KT 3000 FU NSC 21/17 Q1011 RMK TN18.8 BIRD HAZARD RWY 22/04 PP000=
SP	08/01/2026 11:43->	
SPECI SPSO 081143Z 00000KT 3000 BR FU NSC 20/17 Q1011=
SA	08/01/2026 11:00->	
METAR SPSO 081100Z 16003KT 140V200 CAVOK 20/16 Q1010 RMK BIRD HAZARD RWY 22/04 PP000=
SA	08/01/2026 10:00->	
METAR SPSO 081000Z 15004KT 9999 FEW006 20/17 Q1009 RMK BIRD HAZARD RWY 22/04 PP000=
SA	08/01/2026 09:00->	
METAR SPSO 080900Z 15002KT CAVOK 20/16 Q1009 RMK BIRD HAZARD RWY 22/04 PP000=
SA	08/01/2026 08:00->	
METAR SPSO 080800Z 16003KT CAVOK 20/16 Q1009 RMK BIRD HAZARD RWY 22/04 PP000=
SA	08/01/2026 07:00->	
METAR SPSO 080700Z VRB02KT 9999 BKN007 20/17 Q1009 RMK BIRD HAZARD RWY 22/04 PP000=
SA	08/01/2026 06:00->	
METAR SPSO 080600Z 21004KT CAVOK 21/17 Q1010 RMK BIRD HAZARD RWY 22/04 PP000=
SA	08/01/2026 05:00->	
METAR SPSO 080500Z 15003KT 080V200 CAVOK 20/17 Q1011 RMK BIRD HAZARD RWY 22/04 PP000=
SA	08/01/2026 04:00->	
METAR SPSO 080400Z 21006KT CAVOK 21/17 Q1011 RMK BIRD HAZARD RWY 22/04 PP000=
SA	08/01/2026 03:00->	
METAR SPSO 080300Z 19008KT CAVOK 21/17 Q1011 RMK BIRD HAZARD RWY 22/04 PP000=
SA	08/01/2026 02:00->	
METAR SPSO 080200Z 21012KT CAVOK 21/18 Q1011 RMK BIRD HAZARD RWY 22/04 PP000=
SA	08/01/2026 01:00->	
METAR SPSO 080100Z 21014KT CAVOK 21/18 Q1011 RMK BIRD HAZARD RWY 22/04 PP000=
SA	08/01/2026 00:00->	
METAR SPSO 080000Z 21015KT CAVOK 22/18 Q1010 RMK BIRD HAZARD RWY 22/04 PP000=
SA	07/01/2026 23:00->	
METAR SPSO 072300Z 21018KT CAVOK 23/18 Q1009 RMK BIRD HAZARD RWY 22/04 PP000=
SP	07/01/2026 22:00->	
METAR COR SPSO 072200Z 22016KT CAVOK 23/18 Q1009 RMK TX26.2 BIRD HAZARD RWY 22/04 PP000=
SA	07/01/2026 22:00->	
METAR SPSO 072200Z 22016KT CAVOK 23/18 Q1009 RMK TX26.2 BIRD HAZARD RWY 22/04 PP000=
SA	07/01/2026 21:00->	
METAR SPSO 072100Z 22014KT CAVOK 26/18 Q1009 RMK BIRD HAZARD RWY 22/04 PP000=
SA	07/01/2026 20:00->	
METAR SPSO 072000Z 23014KT CAVOK 25/18 Q1010 RMK BIRD HAZARD RWY 22/04 PP000=
SA	07/01/2026 19:00->	
METAR SPSO 071900Z 25007KT 220V280 CAVOK 25/17 Q1011 RMK BIRD HAZARD RWY 22/04 PP000=
SA	07/01/2026 18:00->	
METAR SPSO 071800Z 28008KT 250V310 CAVOK 24/19 Q1011 RMK BIRD HAZARD RWY 22/04 PP000=
SA	07/01/2026 17:00->	
METAR SPSO 071700Z 28009KT 250V310 CAVOK 24/19 Q1012 RMK BIRD HAZARD RWY 22/04 PP000=
SA	07/01/2026 16:00->	
METAR SPSO 071600Z 29008KT CAVOK 23/19 Q1013 RMK BIRD HAZARD RWY 22/04 PP000=
SA	07/01/2026 15:00->	
METAR SPSO 071500Z 30006KT 9000 NSC 23/19 Q1013 RMK HZ BIRD HAZARD RWY 22/04 PP000=
SA	07/01/2026 14:00->	
METAR SPSO 071400Z 27004KT 240V300 9000 SCT015 22/19 Q1014 RMK BIRD HAZARD RWY 22/04 PP000=
SA	07/01/2026 13:00->	
METAR SPSO 071300Z 25003KT 170V300 9000 BKN010 21/18 Q1013 RMK BIRD HAZARD RWY 22/04 PP000=
SA	07/01/2026 12:00->	
METAR SPSO 071200Z 21003KT 170V240 5000 BR BKN009 21/18 Q1013 RMK TN19.1 BIRD HAZARD RWY 22/04 PP000=
SA	07/01/2026 11:00->	
METAR SPSO 071100Z 17003KT 6000 BKN009 20/16 Q1012 RMK BIRD HAZARD RWY 22/04 PP000=
SA	07/01/2026 10:00->	
METAR SPSO 071000Z 18001KT 5000 BR NSC 19/16 Q1012 RMK PP000=
SA	07/01/2026 09:00->	
METAR SPSO 070900Z 19002KT 5000 BR NSC 20/17 Q1011 RMK PP000=
SA	07/01/2026 08:00->	
METAR SPSO 070800Z VRB01KT CAVOK 20/17 Q1011 RMK PP000=
SA	07/01/2026 07:00->	
METAR SPSO 070700Z 13003KT CAVOK 20/17 Q1012 RMK PP000=
SA	07/01/2026 06:00->	
METAR SPSO 070600Z 17004KT CAVOK 20/17 Q1012 RMK PP000=
SA	07/01/2026 05:00->	
METAR SPSO 070500Z 21006KT CAVOK 21/18 Q1013 RMK PP000=
SA	07/01/2026 04:00->	
METAR SPSO 070400Z 21006KT CAVOK 21/18 Q1013 RMK BIRD HAZARD RWY 22/04 PP000=
SA	07/01/2026 03:00->	
METAR SPSO 070300Z 19007KT CAVOK 21/18 Q1014 RMK BIRD HAZARD RWY 22/04 PP000=
SA	07/01/2026 02:00->	
METAR SPSO 070200Z 20008KT CAVOK 21/18 Q1013 RMK BIRD HAZARD RWY 22/04 PP000=
SA	07/01/2026 01:00->	
METAR SPSO 070100Z 21013KT CAVOK 21/19 Q1013 RMK BIRD HAZARD RWY 22/04 PP000=
SA	07/01/2026 00:00->	
METAR SPSO 070000Z 21015KT CAVOK 22/19 Q1012 RMK BIRD HAZARD RWY 22/04 PP000=
SA	06/01/2026 23:00->	
METAR SPSO 062300Z 21017KT CAVOK 22/18 Q1011 RMK BIRD HAZARD RWY 22/04 PP000=
SA	06/01/2026 22:00->	
METAR SPSO 062200Z 22017KT CAVOK 23/18 Q1011 RMK TX25.7 BIRD HAZARD RWY 22/04 PP000=
SA	06/01/2026 21:00->	
METAR SPSO 062100Z 22015KT CAVOK 24/18 Q1011 RMK BIRD HAZARD RWY 22/04 PP000=
SA	06/01/2026 20:00->	
METAR SPSO 062000Z 26007KT 230V290 CAVOK 25/17 Q1011 RMK BIRD HAZARD RWY 22/04 PP000=
SA	06/01/2026 19:00->	
METAR SPSO 061900Z 29009KT 260V320 CAVOK 23/18 Q1012 RMK BIRD HAZARD RWY 22/04 PP000=
SA	06/01/2026 18:00->	
METAR SPSO 061800Z 30010KT CAVOK 22/19 Q1012 RMK BIRD HAZARD RWY 22/04 PP000=
SA	06/01/2026 17:00->	
METAR SPSO 061700Z 29009KT CAVOK 23/19 Q1012 RMK BIRD HAZARD RWY 22/04 PP000=
SA	06/01/2026 16:00->	
METAR SPSO 061600Z 28009KT CAVOK 23/19 Q1013 RMK BIRD HAZARD RWY 22/04 PP000=
SA	06/01/2026 15:00->	
METAR SPSO 061500Z 31007KT 260V330 CAVOK 24/19 Q1013 RMK BIRD HAZARD RWY 22/04 PP000=
SA	06/01/2026 14:00->	
METAR SPSO 061400Z 30005KT 270V340 CAVOK 24/17 Q1013 RMK BIRD HAZARD RWY 22/04 PP000=
SA	06/01/2026 13:00->	
METAR SPSO 061300Z 00000KT CAVOK 22/18 Q1013 RMK BIRD HAZARD RWY 22/04 PP000=
SA	06/01/2026 12:00->	
METAR SPSO 061200Z 18005KT CAVOK 20/17 Q1013 RMK TN19.0 BIRD HAZARD RWY 22/04 PP000=
SA	06/01/2026 11:00->	
METAR SPSO 061100Z 22004KT CAVOK 19/17 Q1012 RMK BIRD HAZARD RWY 22/04 PP000=
SA	06/01/2026 10:00->	
METAR SPSO 061000Z 23003KT CAVOK 19/17 Q1011 RMK BIRD HAZARD RWY 22/04 PP000=
SA	06/01/2026 09:00->	
METAR SPSO 060900Z 18004KT CAVOK 19/17 Q1011 RMK BIRD HAZARD RWY 22/04 PP000=
SA	06/01/2026 08:00->	
METAR SPSO 060800Z 21008KT CAVOK 20/17 Q1011 RMK BIRD HAZARD RWY 22/04 PP000=
SA	06/01/2026 07:00->	
METAR SPSO 060700Z 21006KT CAVOK 21/17 Q1011 RMK BIRD HAZARD RWY 22/04 PP000=
SA	06/01/2026 06:00->	
METAR SPSO 060600Z 22007KT CAVOK 20/18 Q1012 RMK BIRD HAZARD RWY 22/04 PP000=
SA	06/01/2026 05:00->	
METAR SPSO 060500Z 20007KT CAVOK 21/17 Q1013 RMK BIRD HAZARD RWY 22/04 PP000=
SA	06/01/2026 04:00->	
METAR SPSO 060400Z 20004KT CAVOK 21/18 Q1014 RMK BIRD HAZARD RWY 22/04 PP000=
SA	06/01/2026 03:00->	
METAR SPSO 060300Z 20003KT 160V220 CAVOK 21/18 Q1014 RMK BIRD HAZARD RWY 22/04 PP000=
SA	06/01/2026 02:00->	
METAR SPSO 060200Z 21006KT CAVOK 21/18 Q1014 RMK BIRD HAZARD RWY 22/04 PP000=
SA	06/01/2026 01:00->	
METAR SPSO 060100Z 20006KT CAVOK 21/18 Q1014 RMK BIRD HAZARD RWY 22/04 PP000=
SA	06/01/2026 00:00->	
METAR SPSO 060000Z 20007KT 9999 -DZ BKN050 21/18 Q1013 RMK BIRD HAZARD RWY 22/04 PPTRZ=
SA	05/01/2026 23:00->	
METAR SPSO 052300Z 21013KT CAVOK 23/18 Q1013 RMK BIRD HAZARD RWY 22/04 PP000=
SA	05/01/2026 22:00->	
METAR SPSO 052200Z 23011KT CAVOK 24/17 Q1012 RMK TX25.2 BIRD HAZARD RWY 22/04 PP000=
SA	05/01/2026 21:00->	
METAR SPSO 052100Z 25008KT CAVOK 24/16 Q1012 RMK BIRD HAZARD RWY 22/04 PP000=
SA	05/01/2026 20:00->	
METAR SPSO 052000Z 28008KT CAVOK 23/18 Q1012 RMK BIRD HAZARD RWY 22/04 PP000=
SA	05/01/2026 19:00->	
METAR SPSO 051900Z 30008KT CAVOK 25/19 Q1012 RMK BIRD HAZARD RWY 22/04 PP000=
SA	05/01/2026 18:00->	
METAR SPSO 051800Z 29005KT 260V320 CAVOK 24/17 Q1013 RMK BIRD HAZARD RWY 22/04 PP000=
SA	05/01/2026 17:00->	
METAR SPSO 051700Z 24005KT CAVOK 23/17 Q1014 RMK BIRD HAZARD RWY 22/04 PP000=
SA	05/01/2026 16:00->	
METAR SPSO 051600Z 23004KT 7000 NSC 22/18 Q1015 RMK HZ BIRD HAZARD RWY 22/04 PP000=
SA	05/01/2026 15:00->	
METAR SPSO 051500Z 30005KT 270V330 7000 NSC 23/19 Q1014 RMK HZ BIRD HAZARD RWY 22/04 PP000=
SA	05/01/2026 14:00->	
METAR SPSO 051400Z 33004KT 4000 BR FEW020 BKN080 22/19 Q1014 RMK BIRD HAZARD RWY 22/04 PPTRZ=
SP	05/01/2026 13:39->	
SPECI SPSO 051339Z 35004KT 320V030 4000 BR FEW020 OVC080 22/19 Q1014=
SA	05/01/2026 13:00->	
METAR SPSO 051300Z 12003KT 5000 RA SCT020 OVC080 21/18 Q1015 RMK PPTRZ=
SP	05/01/2026 12:42->	
SPECI SPSO 051242Z 12003KT 6000 RA OVC050 21/18 Q1015=
SA	05/01/2026 12:00->	
METAR SPSO 051200Z 00000KT 9000 NSC 21/17 Q1014 RMK TN20.0 BIRD HAZARD RWY 22/04 PP000=
SA	05/01/2026 11:00->	
METAR SPSO 051100Z 19004KT 9000 -DZ SCT050 20/17 Q1013 RMK BIRD HAZARD RWY 22/04 PPTRZ=
SA	05/01/2026 10:00->	
METAR SPSO 051000Z 17003KT 130V220 9000 NSC 20/17 Q1013 RMK PPTRZ=
SP	05/01/2026 09:40->	
SPECI SPSO 050940Z 18004KT 9000 -RA SCT060 20/17 Q1012=
SP	05/01/2026 09:15->	
SPECI SPSO 050915Z 23004KT 9000 RA SCT080 20/17 Q1012=
SA	05/01/2026 09:00->	
METAR SPSO 050900Z 21004KT CAVOK 20/16 Q1012 RMK PP000=
SA	05/01/2026 08:00->	
METAR SPSO 050800Z 20005KT CAVOK 21/16 Q1012 RMK PP000=
SA	05/01/2026 07:00->	
METAR SPSO 050700Z 20005KT CAVOK 20/17 Q1012 RMK PP000=
SA	05/01/2026 06:00->	
METAR SPSO 050600Z 20004KT CAVOK 20/16 Q1013 RMK PP000=
SA	05/01/2026 05:00->	
METAR SPSO 050500Z 19004KT CAVOK 20/16 Q1014 RMK PP000=
SA	05/01/2026 04:00->	
METAR SPSO 050400Z 20004KT CAVOK 20/16 Q1014 RMK PP000=
SA	05/01/2026 03:00->	
METAR SPSO 050300Z 20006KT CAVOK 21/16 Q1014 RMK PP000=
SA	05/01/2026 02:00->	
METAR SPSO 050200Z 20007KT CAVOK 21/17 Q1014 RMK PP000=
SA	05/01/2026 01:00->	
METAR SPSO 050100Z 21009KT CAVOK 21/17 Q1013 RMK PP000=
SA	05/01/2026 00:00->	
METAR SPSO 050000Z 21012KT CAVOK 21/17 Q1012 RMK BIRD HAZARD RWY 22/04 PP000=
SA	04/01/2026 23:00->	
METAR SPSO 042300Z 22015KT CAVOK 22/18 Q1011 RMK BIRD HAZARD RWY 22/04 PP000=
SA	04/01/2026 22:00->	
METAR SPSO 042200Z 22016KT CAVOK 24/18 Q1010 RMK TX26.2 BIRD HAZARD RWY 22/04 PP000=
SA	04/01/2026 21:00->	
METAR SPSO 042100Z 22015KT CAVOK 25/18 Q1010 RMK BIRD HAZARD RWY 22/04 PP000=
SA	04/01/2026 20:00->	
METAR SPSO 042000Z 22014KT CAVOK 26/18 Q1011 RMK BIRD HAZARD RWY 22/04 PP000=
SA	04/01/2026 19:00->	
METAR SPSO 041900Z 23012KT CAVOK 25/17 Q1011 RMK BIRD HAZARD RWY 22/04 PP000=
SA	04/01/2026 18:00->	
METAR SPSO 041800Z 24009KT 200V260 CAVOK 26/17 Q1012 RMK BIRD HAZARD RWY 22/04 PP000=
SA	04/01/2026 17:00->	
METAR SPSO 041700Z 26008KT 230V300 CAVOK 24/17 Q1012 RMK BIRD HAZARD RWY 22/04 PP000=
SA	04/01/2026 16:00->	
METAR SPSO 041600Z 26008KT CAVOK 24/17 Q1013 RMK BIRD HAZARD RWY 22/04 PP000=
SA	04/01/2026 15:00->	
METAR SPSO 041500Z 26007KT CAVOK 24/17 Q1013 RMK BIRD HAZARD RWY 22/04 PP000=
SA	04/01/2026 14:00->	
METAR SPSO 041400Z 26004KT CAVOK 24/16 Q1013 RMK BIRD HAZARD RWY 22/04 PP000=
SA	04/01/2026 13:00->	
METAR SPSO 041300Z 25005KT 8000 NSC 22/17 Q1013 RMK HZ BIRD HAZARD RWY 22/04 PP000=
SA	04/01/2026 12:00->	
METAR SPSO 041200Z 15003KT 5000 HZ NSC 21/16 Q1012 RMK PP000=
SA	04/01/2026 11:00->	
METAR SPSO 041100Z 07001KT CAVOK 19/16 Q1012 RMK PP000=
SA	04/01/2026 10:00->	
METAR SPSO 041000Z 19003KT CAVOK 20/16 Q1011 RMK PP000=
SA	04/01/2026 09:00->	
METAR SPSO 040900Z 19005KT CAVOK 20/16 Q1011 RMK PP000=
SA	04/01/2026 08:00->	
METAR SPSO 040800Z 18006KT CAVOK 20/16 Q1011 RMK PP000=
SA	04/01/2026 07:00->	
METAR SPSO 040700Z 20006KT CAVOK 20/17 Q1011 RMK PP000=
SA	04/01/2026 06:00->	
METAR SPSO 040600Z 21006KT CAVOK 20/17 Q1011 RMK PP000=
SA	04/01/2026 05:00->	
METAR SPSO 040500Z 20008KT CAVOK 20/16 Q1012 RMK PP000=
SA	04/01/2026 04:00->	
METAR SPSO 040400Z 21008KT CAVOK 20/16 Q1013 RMK PP000=
SA	04/01/2026 03:00->	
METAR SPSO 040300Z 20007KT CAVOK 20/16 Q1013 RMK PP000=
SA	04/01/2026 02:00->	
METAR SPSO 040200Z 21010KT CAVOK 20/17 Q1012 RMK PP000=
SA	04/01/2026 01:00->	
METAR SPSO 040100Z 21010KT CAVOK 21/17 Q1011 RMK PP000=
SA	04/01/2026 00:00->	
METAR SPSO 040000Z 21010KT CAVOK 21/17 Q1011 RMK BIRD HAZARD RWY 22/04 PP000=
SA	03/01/2026 23:00->	
METAR SPSO 032300Z 22013KT CAVOK 22/17 Q1010 RMK BIRD HAZARD RWY 22/04 PP000=
SA	03/01/2026 22:00->	
METAR SPSO 032200Z 22013KT CAVOK 23/18 Q1010 RMK TX26.8 BIRD HAZARD RWY 22/04 PP000=
SA	03/01/2026 21:00->	
METAR SPSO 032100Z 22012KT CAVOK 25/17 Q1010 RMK BIRD HAZARD RWY 22/04 PP000=
SA	03/01/2026 20:00->	
METAR SPSO 032000Z 23012KT CAVOK 26/16 Q1010 RMK BIRD HAZARD RWY 22/04 PP000=
SA	03/01/2026 19:00->	
METAR SPSO 031900Z 27006KT 230V290 CAVOK 26/15 Q1011 RMK BIRD HAZARD RWY 22/04 PP000=
SA	03/01/2026 18:00->	
METAR SPSO 031800Z 27009KT CAVOK 23/17 Q1011 RMK BIRD HAZARD RWY 22/04 PP000=
SA	03/01/2026 17:00->	
METAR SPSO 031700Z 26010KT CAVOK 23/17 Q1011 RMK BIRD HAZARD RWY 22/04 PP000=
SA	03/01/2026 16:00->	
METAR SPSO 031600Z 26008KT CAVOK 23/17 Q1012 RMK BIRD HAZARD RWY 22/04 PP000=
SA	03/01/2026 15:00->	
METAR SPSO 031500Z 28007KT 250V310 CAVOK 23/17 Q1012 RMK BIRD HAZARD RWY 22/04 PP000=
SA	03/01/2026 14:00->	
METAR SPSO 031400Z 26003KT 230V300 CAVOK 23/16 Q1012 RMK BIRD HAZARD RWY 22/04 PP000=
SA	03/01/2026 13:00->	
METAR SPSO 031300Z 00000KT 9000 NSC 22/16 Q1012 RMK BIRD HAZARD RWY 22/04 PP000=
SA	03/01/2026 12:00->	
METAR SPSO 031200Z 18003KT 5000 FU NSC 19/15 Q1012 RMK TN16.4 BIRD HAZARD RWY 22/04 PP000=
SP	03/01/2026 11:32->	
SPECI SPSO 031132Z 17003KT 0800 FU NSC 18/15 Q1012=
SA	03/01/2026 11:00->	
METAR SPSO 031100Z 10001KT 3000 BR FU NSC 17/14 Q1011 RMK BIRD HAZARD RWY 22/04 PP000=
SA	03/01/2026 10:00->	
METAR SPSO 031000Z 11002KT 3000 BR FU NSC 17/14 Q1011 RMK BIRD HAZARD RWY 22/04 PP000=
SA	03/01/2026 09:00->	
METAR SPSO 030900Z 16003KT 3000 BR FU NSC 17/14 Q1010 RMK BIRD HAZARD RWY 22/04 PP000=
SA	03/01/2026 08:00->	
METAR SPSO 030800Z 18003KT 4000 BR FU NSC 18/14 Q1010 RMK BIRD HAZARD RWY 22/04 PP000=
SA	03/01/2026 07:00->	
METAR SPSO 030700Z 14003KT 6000 NSC 17/14 Q1011 RMK BIRD HAZARD RWY 22/04 PP000=
SA	03/01/2026 06:00->	
METAR SPSO 030600Z 13002KT CAVOK 18/15 Q1011 RMK BIRD HAZARD RWY 22/04 PP000=
SA	03/01/2026 05:00->	
METAR SPSO 030500Z 19004KT CAVOK 20/16 Q1012 RMK BIRD HAZARD RWY 22/04 PP000=
SA	03/01/2026 04:00->	
METAR SPSO 030400Z 20006KT CAVOK 20/16 Q1012 RMK BIRD HAZARD RWY 22/04 PP000=
SA	03/01/2026 03:00->	
METAR SPSO 030300Z 20006KT CAVOK 20/16 Q1012 RMK BIRD HAZARD RWY 22/04 PP000=
SA	03/01/2026 02:00->	
METAR SPSO 030200Z 19004KT 170V230 CAVOK 20/16 Q1012 RMK BIRD HAZARD RWY 22/04 PP000=
SA	03/01/2026 01:00->	
METAR SPSO 030100Z 20009KT CAVOK 21/17 Q1011 RMK BIRD HAZARD RWY 22/04 PP000=
SA	03/01/2026 00:00->	
METAR SPSO 030000Z 21016KT CAVOK 21/17 Q1010 RMK BIRD HAZARD RWY 22/04 PP000=
SA	02/01/2026 23:00->	
METAR SPSO 022300Z 22015KT CAVOK 22/17 Q1010 RMK BIRD HAZARD RWY 22/04 PP000=
SA	02/01/2026 22:00->	
METAR SPSO 022200Z 22013KT CAVOK 24/17 Q1009 RMK TX26.3 BIRD HAZARD RWY 22/04 PP000=
SA	02/01/2026 21:00->	
METAR SPSO 022100Z 24007KT CAVOK 24/17 Q1010 RMK BIRD HAZARD RWY 22/04 PP000=
SA	02/01/2026 20:00->	
METAR SPSO 022000Z 23009KT CAVOK 26/16 Q1010 RMK BIRD HAZARD RWY 22/04 PP000=
SA	02/01/2026 19:00->	
METAR SPSO 021900Z 24010KT 220V280 CAVOK 26/17 Q1011 RMK BIRD HAZARD RWY 22/04 PP000=
SA	02/01/2026 18:00->	
METAR SPSO 021800Z 24008KT CAVOK 25/17 Q1012 RMK BIRD HAZARD RWY 22/04 PP000=
SA	02/01/2026 17:00->	
METAR SPSO 021700Z 27010KT CAVOK 24/17 Q1012 RMK BIRD HAZARD RWY 22/04 PP000=
SA	02/01/2026 16:00->	
METAR SPSO 021600Z 28008KT CAVOK 24/19 Q1013 RMK BIRD HAZARD RWY 22/04 PP000=
SA	02/01/2026 15:00->	
METAR SPSO 021500Z 28006KT 250V310 CAVOK 24/18 Q1013 RMK BIRD HAZARD RWY 22/04 PP000=
SA	02/01/2026 14:00->	
METAR SPSO 021400Z 28004KT CAVOK 23/17 Q1014 RMK BIRD HAZARD RWY 22/04 PP000=
SA	02/01/2026 13:00->	
METAR SPSO 021300Z VRB01KT 9000 NSC 22/17 Q1014 RMK BIRD HAZARD RWY 22/04 PP000=
SA	02/01/2026 12:00->	
METAR SPSO 021200Z 00000KT 7000 FEW009 20/16 Q1013 RMK TN19.0 HZ BIRD HAZARD RWY 22/04 PP000=
SA	02/01/2026 11:00->	
METAR SPSO 021100Z 00000KT 6000 NSC 20/15 Q1012 RMK HZ BIRD HAZARD RWY 22/04 PP000=
SA	02/01/2026 10:00->	
METAR SPSO 021000Z 07001KT 7000 NSC 19/15 Q1012 RMK FU BIRD HAZARD RWY 22/04 PP000=
SA	02/01/2026 09:00->	
METAR SPSO 020900Z VRB01KT 6000 NSC 20/15 Q1011 RMK FU BIRD HAZARD RWY 22/04 PP000=
SA	02/01/2026 08:00->	
METAR SPSO 020800Z 18004KT 140V210 CAVOK 20/16 Q1012 RMK BIRD HAZARD RWY 22/04 PP000=
SA	02/01/2026 07:00->	
METAR SPSO 020700Z VRB01KT CAVOK 20/16 Q1012 RMK BIRD HAZARD RWY 22/04 PP000=
SA	02/01/2026 06:00->	
METAR SPSO 020600Z 22006KT CAVOK 21/16 Q1012 RMK BIRD HAZARD RWY 22/04 PP000=
SA	02/01/2026 05:00->	
METAR SPSO 020500Z 19003KT CAVOK 21/16 Q1013 RMK BIRD HAZARD RWY 22/04 PP000=
SA	02/01/2026 04:00->	
METAR SPSO 020400Z 19003KT 160V230 CAVOK 22/16 Q1014 RMK BIRD HAZARD RWY 22/04 PP000=
SA	02/01/2026 03:00->	
METAR SPSO 020300Z 20006KT CAVOK 21/16 Q1014 RMK BIRD HAZARD RWY 22/04 PP000=
SA	02/01/2026 02:00->	
METAR SPSO 020200Z 21010KT CAVOK 21/16 Q1014 RMK BIRD HAZARD RWY 22/04 PP000=
SA	02/01/2026 01:00->	
METAR SPSO 020100Z 21013KT CAVOK 21/17 Q1013 RMK BIRD HAZARD RWY 22/04 PP000=
SA	02/01/2026 00:00->	
METAR SPSO 020000Z 21015KT CAVOK 22/17 Q1012 RMK BIRD HAZARD RWY 22/04 PP000=
SA	01/01/2026 23:00->	
METAR SPSO 012300Z 22016KT CAVOK 23/17 Q1011 RMK BIRD HAZARD RWY 22/04 PP000=
SA	01/01/2026 22:00->	
METAR SPSO 012200Z 22013KT CAVOK 25/17 Q1011 RMK TX27.2 BIRD HAZARD RWY 22/04 PP000=
SA	01/01/2026 21:00->	
METAR SPSO 012100Z 23014KT CAVOK 26/17 Q1011 RMK BIRD HAZARD RWY 22/04 PP000=
SA	01/01/2026 20:00->	
METAR SPSO 012000Z 23013KT CAVOK 27/16 Q1011 RMK BIRD HAZARD RWY 22/04 PP000=
SA	01/01/2026 19:00->	
METAR SPSO 011900Z 23011KT CAVOK 26/17 Q1012 RMK BIRD HAZARD RWY 22/04 PP000=
SA	01/01/2026 18:00->	
METAR SPSO 011800Z 27008KT CAVOK 25/18 Q1013 RMK BIRD HAZARD RWY 22/04 PP000=
SA	01/01/2026 17:00->	
METAR SPSO 011700Z 27008KT CAVOK 23/18 Q1013 RMK BIRD HAZARD RWY 22/04 PP000=
SA	01/01/2026 16:00->	
METAR SPSO 011600Z 29008KT 260V320 CAVOK 23/18 Q1013 RMK BIRD HAZARD RWY 22/04 PP000=
SA	01/01/2026 15:00->	
METAR SPSO 011500Z 31007KT 280V340 CAVOK 23/18 Q1014 RMK BIRD HAZARD RWY 22/04 PP000=
SA	01/01/2026 14:00->	
METAR SPSO 011400Z 29004KT 260V320 CAVOK 23/18 Q1014 RMK BIRD HAZARD RWY 22/04 PP000=
SA	01/01/2026 13:00->	
METAR SPSO 011300Z VRB02KT 7000 FEW011 21/18 Q1014 RMK BR BIRD HAZARD RWY 22/04 PP000=
SA	01/01/2026 12:00->	
METAR SPSO 011200Z 01004KT 5000 BR NSC 20/18 Q1013 RMK TN17.6 BIRD HAZARD RWY 22/04 PP000=
SA	01/01/2026 11:00->	
METAR SPSO 011100Z 01004KT 5000 BR NSC 19/17 Q1013 RMK BIRD HAZARD RWY 22/04 PP000=
SA	01/01/2026 10:00->	
METAR SPSO 011000Z 07004KT 5000 BR NSC 18/16 Q1012 RMK BIRD HAZARD RWY 22/04 PP000=
SA	01/01/2026 09:00->	
METAR SPSO 010900Z 10003KT CAVOK 18/15 Q1012 RMK BIRD HAZARD RWY 22/04 PP000=
SA	01/01/2026 08:00->	
METAR SPSO 010800Z 12003KT 8000 NSC 19/15 Q1011 RMK BIRD HAZARD RWY 22/04 PP000=
SA	01/01/2026 07:00->	
METAR SPSO 010700Z 15003KT 090V200 8000 NSC 20/16 Q1012 RMK BIRD HAZARD RWY 22/04 PP000=
SA	01/01/2026 06:00->	
METAR SPSO 010600Z 21009KT CAVOK 20/16 Q1012 RMK BIRD HAZARD RWY 22/04 PP000=
SA	01/01/2026 05:00->	
METAR SPSO 010500Z 22008KT CAVOK 21/17 Q1012 RMK BIRD HAZARD RWY 22/04 PP000=
SA	01/01/2026 04:00->	
METAR SPSO 010400Z 21008KT CAVOK 21/17 Q1012 RMK BIRD HAZARD RWY 22/04 PP000=
SA	01/01/2026 03:00->	
METAR SPSO 010300Z 21013KT CAVOK 21/17 Q1012 RMK BIRD HAZARD RWY 22/04 PP000=
SA	01/01/2026 02:00->	
METAR SPSO 010200Z 22012KT CAVOK 21/17 Q1012 RMK BIRD HAZARD RWY 22/04 PP000=
SA	01/01/2026 01:00->	
METAR SPSO 010100Z 21011KT CAVOK 22/17 Q1012 RMK BIRD HAZARD RWY 22/04 PP000=
SA	01/01/2026 00:00->	
METAR SPSO 010000Z 21014KT CAVOK 22/17 Q1012 RMK BIRD HAZARD RWY 22/04 PP000=